[
  {
    "units": 183,
    "no": 1,
    "provinceId": 10,
    "details": "เขตพระนคร , เขตป้อมปราบศัตรูพ่าย , เขตสัมพันธวงศ์ , เขตดุสิต (ยกเว้นแขวงถนนนครไชยศรี)",
    "eligible": 126247,
    "postcode": [10100, 10200, 10300]
  },
  {
    "units": 206,
    "no": 2,
    "provinceId": 10,
    "details": "เขตปทุมวัน , เขตบางรัก , เขตสาทร",
    "eligible": 131102,
    "postcode": [10120, 10330, 10500]
  },
  {
    "units": 210,
    "no": 3,
    "provinceId": 10,
    "details": "เขตบางคอแหลม , เขตยานนาวา",
    "eligible": 131087,
    "postcode": [10120]
  },
  {
    "units": 186,
    "no": 4,
    "provinceId": 10,
    "details": "เขตคลองเตย , เขตวัฒนา",
    "eligible": 132196,
    "postcode": [10110]
  },
  {
    "units": 209,
    "no": 5,
    "provinceId": 10,
    "details": "เขตดินแดง , เขตห้วยขวาง",
    "eligible": 164107,
    "postcode": [10310, 10400]
  },
  {
    "units": 212,
    "no": 6,
    "provinceId": 10,
    "details": "เขตพญาไท , เขตราชเทวี , เขตจตุจักร (เฉพาะแขวงจตุจักร และแขวงจอมพล)",
    "eligible": 150461,
    "postcode": [10400, 10900]
  },
  {
    "units": 234,
    "no": 7,
    "provinceId": 10,
    "details": "เขตบางซื่อ , เขตดุสิต (เฉพาะแขวงถนนนครไชยศรี)",
    "eligible": 148662,
    "postcode": [10300, 10800]
  },
  {
    "units": 193,
    "no": 8,
    "provinceId": 10,
    "details": "เขตลาดพร้าว , เขตวังทองหลาง (ยกเว้นแขวงพลับพลา)",
    "eligible": 151758,
    "postcode": [10230, 10310]
  },
  {
    "units": 233,
    "no": 9,
    "provinceId": 10,
    "details": "เขตหลักสี่ , เขตจตุจักร (ยกเว้นแขวงจตุจักร และแขวงจอมพล)",
    "eligible": 171511,
    "postcode": [10210, 10900]
  },
  {
    "units": 184,
    "no": 10,
    "provinceId": 10,
    "details": "เขตดอนเมือง",
    "eligible": 137079,
    "postcode": [10210]
  },
  {
    "units": 201,
    "no": 11,
    "provinceId": 10,
    "details": "เขตสายไหม",
    "eligible": 161370,
    "postcode": [10220]
  },
  {
    "units": 208,
    "no": 12,
    "provinceId": 10,
    "details": "เขตบางเขน",
    "eligible": 156673,
    "postcode": [10220]
  },
  {
    "units": 196,
    "no": 13,
    "provinceId": 10,
    "details": "เขตบางกะปิ , เขตวังทองหลาง (เฉพาะแขวงพลับพลา)",
    "eligible": 153177,
    "postcode": [10240, 10310]
  },
  {
    "units": 212,
    "no": 14,
    "provinceId": 10,
    "details": "เขตบึงกุ่ม , เขตคันนายาว (เฉพาะแขวงรามอินทรา)",
    "eligible": 156137,
    "postcode": [10230, 10240]
  },
  {
    "units": 184,
    "no": 15,
    "provinceId": 10,
    "details": "เขตมีนบุรี , เขตคันนายาว (ยกเว้นแขวงรามอินทรา)",
    "eligible": 139617,
    "postcode": [10230, 10510]
  },
  {
    "units": 180,
    "no": 16,
    "provinceId": 10,
    "details": "เขตคลองสามวา",
    "eligible": 153030,
    "postcode": [10510]
  },
  {
    "units": 166,
    "no": 17,
    "provinceId": 10,
    "details": "เขตหนองจอก",
    "eligible": 130687,
    "postcode": [10530]
  },
  {
    "units": 181,
    "no": 18,
    "provinceId": 10,
    "details": "เขตลาดกระบัง",
    "eligible": 136455,
    "postcode": [10520]
  },
  {
    "units": 192,
    "no": 19,
    "provinceId": 10,
    "details": "เขตสะพานสูง , เขตประเวศ (ยกเว้นแขวงหนองบอน และแขวงดอกไม้)",
    "eligible": 141466,
    "postcode": [10240, 10250]
  },
  {
    "units": 237,
    "no": 20,
    "provinceId": 10,
    "details": "เขตสวนหลวง , เขตประเวศ (เฉพาะแขวงหนองบอน และแขวงดอกไม้)",
    "eligible": 168864,
    "postcode": [10250]
  },
  {
    "units": 243,
    "no": 21,
    "provinceId": 10,
    "details": "เขตบางนา , เขตพระโขนง",
    "eligible": 147374,
    "postcode": [10260]
  },
  {
    "units": 241,
    "no": 22,
    "provinceId": 10,
    "details": "เขตคลองสาน , เขตบางกอกใหญ่ , เขตธนบุรี (ยกเว้นแขวงดาวคะนอง แขวงบุคคโล และแขวงสำเหร่)",
    "eligible": 160203,
    "postcode": [10600]
  },
  {
    "units": 221,
    "no": 23,
    "provinceId": 10,
    "details": "เขตจอมทอง , เขตธนบุรี (เฉพาะแขวงดาวคะนอง แขวงบุคคโล และแขวงสำเหร่)",
    "eligible": 162788,
    "postcode": [10150, 10600]
  },
  {
    "units": 187,
    "no": 24,
    "provinceId": 10,
    "details": "เขตราษฎร์บูรณะ , เขตทุ่งคร",
    "eligible": 162426,
    "postcode": [10140]
  },
  {
    "units": 176,
    "no": 25,
    "provinceId": 10,
    "details": "เขตบางขุนเทียน",
    "eligible": 141373,
    "postcode": [10150]
  },
  {
    "units": 182,
    "no": 26,
    "provinceId": 10,
    "details": "เขตบางบอน , เขตหนองแขม (เฉพาะแขวงหนองแขม)",
    "eligible": 145330,
    "postcode": [10150, 10160]
  },
  {
    "units": 238,
    "no": 27,
    "provinceId": 10,
    "details": "เขตทวีวัฒนา , เขตตลิ่งชัน (เฉพาะแขวงตลิ่งชัน และแขวงฉิมพลี) , เขตหนองแขม (ยกเว้นแขวงหนองแขม)",
    "eligible": 166377,
    "postcode": [10160, 10170]
  },
  {
    "units": 220,
    "no": 28,
    "provinceId": 10,
    "details": "เขตบางแค",
    "eligible": 157528,
    "postcode": [10160]
  },
  {
    "units": 216,
    "no": 29,
    "provinceId": 10,
    "details": "เขตภาษีเจริญ , เขตตลิ่งชัน (ยกเว้นแขวงตลิ่งชัน และแขวงฉิมพลี)",
    "eligible": 147799,
    "postcode": [10160, 10170]
  },
  {
    "units": 219,
    "no": 30,
    "provinceId": 10,
    "details": "เขตบางพลัด , เขตบางกอกน้อย",
    "eligible": 167305,
    "postcode": [10700]
  },
  {
    "units": 172,
    "no": 1,
    "provinceId": 11,
    "details": "อำเภอเมืองสมุทรปราการ (เฉพาะตำบลบางโปรง ตำบลบางด้วน  ตำบลบางเมือง ตำบลท้ายบ้าน และตำบลปากน้ำ)",
    "eligible": 124673,
    "postcode": [10270, 10280]
  },
  {
    "units": 172,
    "no": 2,
    "provinceId": 11,
    "details": "อำเภอเมืองสมุทรปราการ (เฉพาะตำบลบางปู ตำบลบางปูใหม่ ตำบลแพรกษา ตำบลแพรกษาใหม่ และตำบลท้ายบ้านใหม่)",
    "eligible": 156778,
    "postcode": [10280]
  },
  {
    "units": 198,
    "no": 3,
    "provinceId": 11,
    "details": "อำเภอเมืองสมุทรปราการ (เฉพาะตำบลเทพารักษ์ ตำบลสำโรงเหนือ และตำบลบางเมืองใหม่)",
    "eligible": 141830,
    "postcode": [10270]
  },
  {
    "units": 178,
    "no": 4,
    "provinceId": 11,
    "details": "อำเภอบางพลี (ยกเว้นตำบลหนองปรือ และตำบลราชาเทวะ)",
    "eligible": 171754,
    "postcode": [10540]
  },
  {
    "units": 229,
    "no": 5,
    "provinceId": 11,
    "details": "อำเภอบางบ่อ , อำเภอบางเสาธง , อำเภอบางพลี (เฉพาะตำบลหนองปรือ และตำบลราชาเทวะ)",
    "eligible": 173036,
    "postcode": [10540, 10550, 10560]
  },
  {
    "units": 220,
    "no": 6,
    "provinceId": 11,
    "details": "อำเภอพระประแดง (ยกเว้นตำบลบางจาก)",
    "eligible": 137774,
    "postcode": [10130]
  },
  {
    "units": 167,
    "no": 7,
    "provinceId": 11,
    "details": "อำเภอพระสมุทรเจดีย์ , อำเภอพระประแดง (เฉพาะตำบลบางจาก)",
    "eligible": 128100,
    "postcode": [10130, 10290]
  },
  {
    "units": 203,
    "no": 1,
    "provinceId": 12,
    "details": "อำเภอเมืองนนทบุรี (เฉพาะตำบลท่าทราย ตำบลบางกระสอ และตำบลบางเขน) , อำเภอปากเกร็ด (เฉพาะตำบลบางพลับ ตำบลอ้อมเกร็ด ตำบลเกาะเกร็ด และตำบลท่าอิฐ)",
    "eligible": 172586,
    "postcode": [11000, 11120]
  },
  {
    "units": 182,
    "no": 2,
    "provinceId": 12,
    "details": "อำเภอเมืองนนทบุรี (ยกเว้นตำบลท่าทราย ตำบลบางกระสอ และตำบลบางเขน)",
    "eligible": 157760,
    "postcode": [11000]
  },
  {
    "units": 214,
    "no": 3,
    "provinceId": 12,
    "details": "อำเภอบางกรวย , อำเภอบางใหญ่ (เฉพาะตำบลบ้านใหม่ ตำบลบางแม่นาง และตำบลบางใหญ",
    "eligible": 170587,
    "postcode": [11130, 11140]
  },
  {
    "units": 221,
    "no": 4,
    "provinceId": 12,
    "details": "อำเภอปากเกร็ด (ยกเว้นตำบลบางพลับ ตำบลอ้อมเกร็ด ตำบลเกาะเกร็ด และตำบลท่าอิฐ)",
    "eligible": 165934,
    "postcode": [11120]
  },
  {
    "units": 234,
    "no": 5,
    "provinceId": 12,
    "details": "อำเภอบางบัวทอง (เฉพาะตำบลพิมลราช ตำบลโสนลอย ตำบลบางรักพัฒนา และตำบลบางรักใหญ่) , อำเภอบางใหญ่ (ยกเว้นตำบลบ้านใหม่ ตำบลบางแม่นาง และตำบลบางใหญ่ )",
    "eligible": 175781,
    "postcode": [11110, 11140]
  },
  {
    "units": 207,
    "no": 6,
    "provinceId": 12,
    "details": "อำเภอไทรน้อย , อำเภอบางบัวทอง (ยกเว้นตำบลพิมลราช ตำบลโสนลอย ตำบลบางรักพัฒนา และตำบลบางรักใหญ่)",
    "eligible": 159096,
    "postcode": [11110, 11150]
  },
  {
    "units": 201,
    "no": 1,
    "provinceId": 13,
    "details": "อำเภอเมืองปทุมธานี (เฉพาะตำบลบางปรอก ตำบลบ้านฉาง ตำบลบางขะแยง ตำบลบางคูวัด ตำบลบางหลวง ตำบลบางเดื่อ ตำบลบ้านใหม่ และตำบลบางกะดี) , อำเภอลาดหลุมแก้ว",
    "eligible": 148767,
    "postcode": [12000, 12140]
  },
  {
    "units": 220,
    "no": 2,
    "provinceId": 13,
    "details": "อำเภอเมืองปทุมธานี (ยกเว้นตำบลบางปรอก ตำบลบ้านฉาง ตำบลบางขะแยง ตำบลบางคูวัด ตำบลบางหลวง ตำบลบางเดื่อ ตำบลบ้านใหม่ และตำบลบางกะดี) , อำเภอสามโคก , อำเภอคลองหลวง (เฉพาะเทศบาลเมือง คลองหลวง)",
    "eligible": 154349,
    "postcode": [12000, 12120, 12160]
  },
  {
    "units": 169,
    "no": 3,
    "provinceId": 13,
    "details": "อำเภอคลองหลวง (เฉ พาะเทศบาลเมืองท่าโขลง ตำบลคลองสาม และตำบลคลองสี่)",
    "eligible": 138628,
    "postcode": [12110, 12120]
  },
  {
    "units": 197,
    "no": 4,
    "provinceId": 13,
    "details": "อำเภอธัญบุรี (เฉพาะตำบลประชาธิปัตย์) , อำเภอลำลูกกา (เฉพาะตำบลคูคต)",
    "eligible": 153628,
    "postcode": [12130]
  },
  {
    "units": 177,
    "no": 5,
    "provinceId": 13,
    "details": "อำเภอธัญบุรี (เฉพาะตำบลบึงยี่โถ) , อำเภอลำลูกกา (ยกเว้นตำบลคูคต)",
    "eligible": 156094,
    "postcode": [12130, 12150]
  },
  {
    "units": 179,
    "no": 6,
    "provinceId": 13,
    "details": "อำเภอคลองหลวง (เฉพาะตำบลคลองห้า ตำบลคลองหก และตำบลคลองเจ็ด) , อำเภอหนองเสือ , อำเภอธัญบุรี (เฉพาะตำบลรังสิต ตำบลลำผักกูด ตำบลบึงสนั่น และตำบลบึงน้ำรักษ์)",
    "eligible": 141982,
    "postcode": [12110, 12120, 12170]
  },
  {
    "units": 235,
    "no": 1,
    "provinceId": 14,
    "details": "อำเภอพระนครศรีอยุธยา , อำเภออุทัย",
    "eligible": 151034,
    "postcode": [13000, 13210]
  },
  {
    "units": 253,
    "no": 2,
    "provinceId": 14,
    "details": "อำเภอบางปะหัน , อำเภอมหาราช , อำเภอท่าเรือ , อำเภอนครหลวง , อำเภอภาชี , อำเภอบ้านแพรก",
    "eligible": 152899,
    "postcode": [13130, 13140, 13150, 13220, 13240, 13260]
  },
  {
    "units": 268,
    "no": 3,
    "provinceId": 14,
    "details": "อำเภอบางปะอิน , อำเภอบางไทร , อำเภอวังน้อย",
    "eligible": 183980,
    "postcode": [13160, 13170, 13180, 13190, 13290]
  },
  {
    "units": 267,
    "no": 4,
    "provinceId": 14,
    "details": "อำเภอเสนา , อำเภอบางซ้าย , อำเภอผักไห่ , อำเภอบางบาล , อำเภอลาดบัวหลวง",
    "eligible": 161125,
    "postcode": [13110, 13120, 13230, 13250, 13270, 13280]
  },
  {
    "units": 474,
    "no": 1,
    "provinceId": 15,
    "details": "ทั้งจังหวัด",
    "eligible": 226924,
    "postcode": [14000, 14110, 14120, 14130, 14140, 14150, 14160]
  },
  {
    "units": 209,
    "no": 1,
    "provinceId": 16,
    "details": "อำเภอเมืองลพบุรี (เฉพาะตำบลเขาสามยอด ตำบลท่าหิน ตำบลทะเลชุบศร ตำบลเขาพระงาม ตำบลท่าศาลา ตำบลโคกตูม ตำบลนิคมสร้างตนเอง ตำบลถนนใหญ่ ตำบลกกโก ตำบลป่าตาล และตำบลท่าแค)",
    "eligible": 151560,
    "postcode": [15000, 15160, 15210]
  },
  {
    "units": 276,
    "no": 2,
    "provinceId": 16,
    "details": "อำเภอเมืองลพบุรี (ยกเว้นตำบลเขาสามยอด ตำบลท่าหิน ตำบลทะเลชุบศร ตำบลเขาพระงาม ตำบลท่าศาลา ตำบลโคกตูม ตำบลนิคมสร้างตนเอง ตำบลถนนใหญ่ ตำบลกกโก ตำบลป่าตาล และตำบลท่าแค) , อำเภอท่าวุ้ง , อำเภอบ้านหมี่",
    "eligible": 152530,
    "postcode": [13240, 15000, 15110, 15150, 15160, 15180, 15210]
  },
  {
    "units": 254,
    "no": 3,
    "provinceId": 16,
    "details": "อำเภอโคกสำโรง , อำเภอหนองม่วง , อำเภอพัฒนานิคม",
    "eligible": 146447,
    "postcode": [15120, 15140, 15170, 15220, 18220]
  },
  {
    "units": 278,
    "no": 4,
    "provinceId": 16,
    "details": "อำเภอชัยบาดาล , อำเภอท่าหลวง , อำเภอลำสนธิ , อำเภอสระโบสถ์ , อำเภอโคกเจริญ",
    "eligible": 151279,
    "postcode": [15130, 15190, 15230, 15240, 15250]
  },
  {
    "units": 209,
    "no": 1,
    "provinceId": 17,
    "details": "ทั้งจังหวัด",
    "eligible": 170539,
    "postcode": [16000, 16110, 16120, 16130, 16140, 16150, 16160]
  },
  {
    "units": 246,
    "no": 1,
    "provinceId": 18,
    "details": "อำเภอเมืองชัยนาท , อำเภอสรรพยา , อำเภอมโนรมย์ , อำเภอวัดสิงห์ (เฉพาะตำบลมะขามเฒ่า ตำบลหนองน้อย ตำบลหนองบัว ตำบลหนองขุ่น และเทศบาลตำบลวัดสิงห์",
    "eligible": 133514,
    "postcode": [17000, 17110, 17120, 17150, 17170]
  },
  {
    "units": 257,
    "no": 2,
    "provinceId": 18,
    "details": "อำเภอสรรคบุรี , อำเภอหันคา , อำเภอเนินขาม , อำเภอหนองมะโมง , อำเภอวัดสิงห์ (ยกเว้นตำบลมะขามเฒ่า ตำบลหนองน้อย ตำบลหนองบัว ตำบลหนองขุ่น และเทศบาลตำบลวัดสิงห์)",
    "eligible": 132616,
    "postcode": [17120, 17130, 17140, 17160]
  },
  {
    "units": 225,
    "no": 1,
    "provinceId": 19,
    "details": "อำเภอเมืองสระบุรี , อำเภอเฉลิมพระเกียรติ , อำเภอพระพุทธบาท",
    "eligible": 168313,
    "postcode": [18000, 18120, 18240]
  },
  {
    "units": 254,
    "no": 2,
    "provinceId": 19,
    "details": "อำเภอแก่งคอย , อำเภอวิหารแดง , อำเภอมวกเหล็ก , อำเภอวังม่วง",
    "eligible": 167568,
    "postcode": [18110, 18150, 18180, 18220, 18260, 30130]
  },
  {
    "units": 258,
    "no": 3,
    "provinceId": 19,
    "details": "อำเภอหนองแค , อำเภอหนองแซง , อำเภอเสาไห้ , อำเภอบ้านหมอ , อำเภอหนองโดน , อำเภอดอนพุด",
    "eligible": 165787,
    "postcode": [18130, 18140, 18160, 18170, 18190, 18210, 18230, 18250, 18270]
  },
  {
    "units": 178,
    "no": 1,
    "provinceId": 20,
    "details": "อำเภอเมืองชลบุรี (ยกเว้นตำบลบางปลาสร้อย ตำบลมะขามหย่ง ตำบลบ้านโขด ตำบลบางทราย ตำบลหนองไม้แดง ตำบลคลองตำหรุ ตำบลดอนหัวฬ่อ และตำบลบ้านสวน)",
    "eligible": 151106,
    "postcode": [20000, 20130]
  },
  {
    "units": 188,
    "no": 2,
    "provinceId": 20,
    "details": "อำเภอเมืองชลบุรี (เฉพาะตำบลบางปลาสร้อย ตำบลมะขามหย่ง ตำบลบ้านโขด ตำบลบางทราย ตำบลหนองไม้แดง ตำบลคลองตำหรุ ตำบลดอนหัวฬ่อ และตำบลบ้านสวน) , อำเภอพานทอง (ยกเว้นตำบลมาบโป่ง และตำบลหนองหงษ์)",
    "eligible": 147138,
    "postcode": [20000, 20160]
  },
  {
    "units": 198,
    "no": 3,
    "provinceId": 20,
    "details": "อำเภอพนัสนิคม , อำเภอเกาะจันทร์ , อำเภอพานทอง (เฉพาะตำบลมาบโป่ง และตำบลหนองหงษ์)",
    "eligible": 139440,
    "postcode": [20140, 20160, 20240]
  },
  {
    "units": 191,
    "no": 4,
    "provinceId": 20,
    "details": "อำเภอบ้านบึง , อำเภอบ่อทอง , อำเภอหนองใหญ่",
    "eligible": 136917,
    "postcode": [20170, 20190, 20220, 20270]
  },
  {
    "units": 194,
    "no": 5,
    "provinceId": 20,
    "details": "อำเภอศรีราชา (ยกเว้นตำบลทุ่งสุขลา และตำบลบึง) , อำเภอเกาะสีชัง",
    "eligible": 165579,
    "postcode": [20110, 20120, 20230]
  },
  {
    "units": 162,
    "no": 6,
    "provinceId": 20,
    "details": "อำเภอศรีราชา (เฉพาะตำบลทุ่งสุขลา และตำบลบึง) , อำเภอบางละมุง (ยกเว้นตำบลหนองปรือ ตำบลโป่ง ตำบลห้วยใหญ่ และตำบลเขาไม้แก้ว",
    "eligible": 144927,
    "postcode": [20150, 20230]
  },
  {
    "units": 137,
    "no": 7,
    "provinceId": 20,
    "details": "อำเภอบางละมุง (เฉพาะตำบลหนองปรือ ตำบลโป่ง ตำบลห้วยใหญ่ และตำบลเขาไม้แก้ว)",
    "eligible": 142425,
    "postcode": [20150]
  },
  {
    "units": 142,
    "no": 8,
    "provinceId": 20,
    "details": "อำเภอสัตหีบ",
    "eligible": 127763,
    "postcode": [20180, 20250]
  },
  {
    "units": 177,
    "no": 1,
    "provinceId": 21,
    "details": "อำเภอเมืองระยอง (ยกเว้นเทศบาลเมือง มาบตาพุด เทศบาลตำบลทับมา และเทศบาลตำบลเนินพระ)",
    "eligible": 128227,
    "postcode": [21000, 21100, 21150, 21160]
  },
  {
    "units": 245,
    "no": 2,
    "provinceId": 21,
    "details": "อำเภอแกลง , อำเภอวังจันทร์ อำเภอเขาชะเมา",
    "eligible": 140880,
    "postcode": [21110, 21170, 21190, 21210, 22160]
  },
  {
    "units": 191,
    "no": 3,
    "provinceId": 21,
    "details": "อำเภอบ้านค่าย , อำเภอปลวกแดง , อำเภอนิคมพัฒนา",
    "eligible": 141213,
    "postcode": [21120, 21140, 21180]
  },
  {
    "units": 166,
    "no": 4,
    "provinceId": 21,
    "details": "อำเภอเมืองระยอง (เฉพาะเทศบาลเมือง มาบตาพุด เทศบาลตำบลทับมา และเทศบาลตำบลเนินพระ) , อำเภอบ้านฉาง",
    "eligible": 134514,
    "postcode": [21130, 21150]
  },
  {
    "units": 233,
    "no": 1,
    "provinceId": 22,
    "details": "อำเภอเมืองจันทบุรี , อำเภอแหลมสิงห์",
    "eligible": 127497,
    "postcode": [22000, 22120, 22130, 22190]
  },
  {
    "units": 270,
    "no": 2,
    "provinceId": 22,
    "details": "อำเภอท่าใหม่ , อำเภอนายายอาม อำเภอแก่งหางแมว , อำเภอเขาคิชฌกูฏ",
    "eligible": 139567,
    "postcode": [22120, 22160, 22170, 22210]
  },
  {
    "units": 303,
    "no": 3,
    "provinceId": 22,
    "details": "อำเภอโป่งน้ำร้อน , อำเภอขลุง , อำเภอมะขาม , อำเภอสอยดาว",
    "eligible": 154871,
    "postcode": [22110, 22140, 22150, 22180]
  },
  {
    "units": 305,
    "no": 1,
    "provinceId": 23,
    "details": "ทั้งจังหวัด",
    "eligible": 172749,
    "postcode": [23000, 23110, 23120, 23130, 23140, 23150, 23170]
  },
  {
    "units": 199,
    "no": 1,
    "provinceId": 24,
    "details": "อำเภอเมืองฉะเชิงเทรา , อำเภอบางน้ำเปรี้ยว (เฉพาะตำบลศาลาแดง และตำบลโพรงอากาศ)",
    "eligible": 141354,
    "postcode": [24000, 24150]
  },
  {
    "units": 254,
    "no": 2,
    "provinceId": 24,
    "details": "อำเภอพนมสารคาม (เฉพาะตำบลเขาหินซ้อน ตำบลหนองยาว และตำบลบ้านซ่อง) , อำเภอบางคล้า , อำเภอคลองเขื่อน , อำเภอราชสาส์น , อำเภอบางน้ำเปรี้ยว (ยกเว้นตำบลศาลาแดง และตำบลโพรงอากาศ)",
    "eligible": 138161,
    "postcode": [24000, 24110, 24120, 24150, 24170]
  },
  {
    "units": 205,
    "no": 3,
    "provinceId": 24,
    "details": "อำเภอท่าตะเกียบ , อำเภอสนามชัยเขต , อำเภอพนมสารคาม (ยกเว้นตำบลเขาหินซ้อน ตำบลหนองยาว และตำบลบ้านซ่อง)",
    "eligible": 128625,
    "postcode": [24120, 24160]
  },
  {
    "units": 233,
    "no": 4,
    "provinceId": 24,
    "details": "อำเภอบ้านโพธิ์ , อำเภอบางปะกง , อำเภอแปลงยาว",
    "eligible": 148921,
    "postcode": [24130, 24140, 24180, 24190]
  },
  {
    "units": 230,
    "no": 1,
    "provinceId": 25,
    "details": "อำเภอเมืองปราจีนบุรี , อำเภอบ้านสร้าง , อำเภอศรีมโหสถ",
    "eligible": 128381,
    "postcode": [25000, 25150, 25190, 25230]
  },
  {
    "units": 278,
    "no": 2,
    "provinceId": 25,
    "details": "อำเภอศรีมหาโพธิ , อำเภอประจันตคาม , อำเภอกบินทร์บุรี (เฉพาะตำบลลาดตะเคียน ตำบลหาดนางแก้ว ตำบลวังดาล ตำบลนนทรี และตำบลนาแขม)",
    "eligible": 130791,
    "postcode": [25110, 25130, 25140]
  },
  {
    "units": 236,
    "no": 3,
    "provinceId": 25,
    "details": "อำเภอนาดี , อำเภอกบินทร์บุรี (ยกเว้นตำบลลาดตะเคียน ตำบลหาดนางแก้ว ตำบลวังดาล ตำบลนนทรี และตำบลนาแขม)",
    "eligible": 123355,
    "postcode": [25110, 25220, 25240]
  },
  {
    "units": 456,
    "no": 1,
    "provinceId": 26,
    "details": "ทั้งจังหวัด",
    "eligible": 207138,
    "postcode": [26000, 26110, 26120, 26130]
  },
  {
    "units": 247,
    "no": 1,
    "provinceId": 27,
    "details": "อำเภอเมืองสระแก้ว , อำเภอเขาฉกรรจ์ , อำเภอวังน้ำเย็น (เฉพาะตำบลทุ่งมหาเจริญ)",
    "eligible": 142069,
    "postcode": [27000, 27210]
  },
  {
    "units": 280,
    "no": 2,
    "provinceId": 27,
    "details": "อำเภอวัฒนานคร (ยกเว้นตำบลช่องกุ่ม และตำบลแซร์ออ) , อำเภอวังน้ำเย็น (ยกเว้นตำบลทุ่งมหาเจริญ) , อำเภอคลองหาด , อำเภอวังสมบูรณ์",
    "eligible": 141060,
    "postcode": [27160, 27210, 27250, 27260]
  },
  {
    "units": 262,
    "no": 3,
    "provinceId": 27,
    "details": "อำเภออรัญประเทศ , อำเภอตาพระยา , อำเภอโคกสูง , อำเภอวัฒนานคร (เฉพาะตำบลช่องกุ่ม และตำบลแซร์ออ)",
    "eligible": 144806,
    "postcode": [27120, 27160, 27180]
  },
  {
    "units": 238,
    "no": 1,
    "provinceId": 30,
    "details": "อำเภอเมืองนครราชสีมา (เฉพาะตำบลในเมือง ตำบลหนองจะบก ตำบลโพธิ์กลาง และตำบลหนองไผ่ล้อม)",
    "eligible": 150462,
    "postcode": [30000]
  },
  {
    "units": 230,
    "no": 2,
    "provinceId": 30,
    "details": "อำเภอเมืองนครราชสีมา (เฉพาะตำบลจอหอ ตำบลบ้านใหม่ ตำบลหมื่นไวย ตำบลโคกสูง ตำบลพุดซา ตำบลบ้านโพธิ์ ตำบลหนองกระทุ่ม ตำบลตลาด ตำบลสีมุม ตำบลหนองไข่น้ำ ตำบลบ้านเกาะ ตำบลมะเริง ตำบลพลกรัง ตำบลโคกกรวด ตำบลสุรนารี และตำบลปรุใหญ่)",
    "eligible": 156723,
    "postcode": [30000, 30280, 30310]
  },
  {
    "units": 307,
    "no": 3,
    "provinceId": 30,
    "details": "อำเภอสูงเนิน , อำเภอขามทะเลสอ , อำเภอสีคิ้ว (เฉพาะตำบลสีคิ้ว ตำบลลาดบัวขาว ตำบลหนองน้ำใส ตำบลคลองไผ่ ตำบลมิตรภาพ และตำบลหนองหญ้าขาว)",
    "eligible": 155273,
    "postcode": [30140, 30170, 30280, 30340, 30380]
  },
  {
    "units": 322,
    "no": 4,
    "provinceId": 30,
    "details": "อำเภอโนนสูง , อำเภอโนนไทย (เฉพาะตำบลกำปัง ตำบลถนนโพธิ์ ตำบลสำโรง ตำบลด่านจาก และตำบลมะค่า) , อำเภอพิมาย (เฉพาะตำบลสัมฤทธิ์ ตำบลท่าหลวง ตำบลกระเบื้องใหญ่ และตำบลชีวาน)",
    "eligible": 148602,
    "postcode": [30110, 30160, 30220, 30420]
  },
  {
    "units": 336,
    "no": 5,
    "provinceId": 30,
    "details": "อำเภอบัวใหญ่ , อำเภอแก้งสนามนาง , อำเภอบัวลาย , อำเภอสีดา , อำเภอบ้านเหลื่อม",
    "eligible": 149853,
    "postcode": [30120, 30350, 30430, 30440]
  },
  {
    "units": 369,
    "no": 6,
    "provinceId": 30,
    "details": "อำเภอประทาย , อำเภอโนนแดง , อำเภอเมืองยาง , อำเภอลำทะเมนชัย , อำเภอคง (เฉพาะตำบลเทพาลัย ตำบลขามสมบูรณ์ และตำบลตาจั่น)",
    "eligible": 148238,
    "postcode": [30180, 30260, 30270, 30360]
  },
  {
    "units": 311,
    "no": 7,
    "provinceId": 30,
    "details": "อำเภอชุมพวง , อำเภอพิมาย (ยกเว้นตำบลสัมฤทธิ์ ตำบลท่าหลวง ตำบลกระเบื้องใหญ่ และตำบลชีวาน)",
    "eligible": 147973,
    "postcode": [30110, 30270]
  },
  {
    "units": 320,
    "no": 8,
    "provinceId": 30,
    "details": "อำเภอห้วยแถลง , อำเภอจักราช , อำเภอเฉลิมพระเกียรต",
    "eligible": 145407,
    "postcode": [30000, 30230, 30240]
  },
  {
    "units": 306,
    "no": 9,
    "provinceId": 30,
    "details": "อำเภอโชคชัย , อำเภอหนองบุญมาก , อำเภอเมืองนครราชสีมา (เฉพาะตำบลหัวทะเล ตำบลหนองระเวียง และตำบลพะเนา)",
    "eligible": 148113,
    "postcode": [30000, 30190, 30410]
  },
  {
    "units": 291,
    "no": 10,
    "provinceId": 30,
    "details": "อำเภอครบุรี , อำเภอเสิงสาง , อำเภอวังน้ำเขียว (เฉพาะตำบลวังน้ำเขียว และตำบลไทยสามัคคี)",
    "eligible": 144029,
    "postcode": [30250, 30330, 30370]
  },
  {
    "units": 337,
    "no": 11,
    "provinceId": 30,
    "details": "อำเภอปักธงชัย , อำเภอวังน้ำเขียว (ยกเว้นตำบลวังน้ำเขียว และตำบลไทยสามัคคี) , อำเภอเมืองนครราชสีมา (เฉพาะตำบลหนองบัวศาลา และตำบลไชยมงคล) , อำเภอปากช่อง (เฉพาะตำบลวังกะทะ)",
    "eligible": 147657,
    "postcode": [30000, 30130, 30150, 30370]
  },
  {
    "units": 273,
    "no": 12,
    "provinceId": 30,
    "details": "อำเภอปากช่อง (ยกเว้นตำบลวังกะทะ)",
    "eligible": 145099,
    "postcode": [30130, 30320]
  },
  {
    "units": 371,
    "no": 13,
    "provinceId": 30,
    "details": "อำเภอด่านขุนทด , อำเภอเทพารักษ์ , อำเภอสีคิ้ว (ยกเว้นตำบลสีคิ้ว ตำบลลาดบัวขาว ตำบลหนองน้ำใส ตำบลคลองไผ่ ตำบลมิตรภาพ และตำบลหนองหญ้าขาว)",
    "eligible": 154509,
    "postcode": [30140, 30210, 30340, 36220]
  },
  {
    "units": 341,
    "no": 14,
    "provinceId": 30,
    "details": "อำเภอขามสะแกแสง , อำเภอพระทองคำ , อำเภอคง (ยกเว้นตำบลเทพาลัย ตำบลขามสมบูรณ์ และตำบลตาจั่น) , อำเภอโนนไทย (ยกเว้นตำบลกำปัง ตำบลถนนโพธิ์ ตำบลสำโรง ตำบลด่านจาก และตำบลมะค่า)",
    "eligible": 144239,
    "postcode": [30220, 30260, 30290]
  },
  {
    "units": 307,
    "no": 1,
    "provinceId": 31,
    "details": "อำเภอเมืองบุรีรัมย์ (ยกเว้นตำบลบัวทอง ตำบลถลุงเหล็ก และตำบลกลันทา)",
    "eligible": 152864,
    "postcode": [31000]
  },
  {
    "units": 322,
    "no": 2,
    "provinceId": 31,
    "details": "อำเภอสตึก อำเภอบ้านด่าน , อำเภอแคนดง , อำเภอเมืองบุรีรัมย์ (เฉพาะตำบลบัวทอง ตำบลถลุงเหล็ก และตำบลกลันทา)",
    "eligible": 150273,
    "postcode": [31000, 31150]
  },
  {
    "units": 334,
    "no": 3,
    "provinceId": 31,
    "details": "อำเภอคูเมือง , อำเภอพุทไธสง , อำเภอนาโพธิ์ , อำเภอบ้านใหม่ไชยพจน์ , อำเภอลำปลายมาศ (เฉพาะตำบลโคกสะอาด และตำบลเมืองแฝก)",
    "eligible": 155414,
    "postcode": [31120, 31130, 31190, 31230]
  },
  {
    "units": 342,
    "no": 4,
    "provinceId": 31,
    "details": "อำเภอหนองหงส์ , อำเภอช านิ , อำเภอลำปลายมาศ (ยกเว้นตำบลโคกสะอาด และตำบลเมืองแฝก)",
    "eligible": 156946,
    "postcode": [31110, 31130, 31240]
  },
  {
    "units": 319,
    "no": 5,
    "provinceId": 31,
    "details": "อำเภอกระสัง , อำเภอพลับพลาชัย , อำเภอห้วยราช , อำเภอประโคนชัย (เฉพาะตำบลไพศาล)",
    "eligible": 152404,
    "postcode": [31000, 31140, 31160, 31250]
  },
  {
    "units": 301,
    "no": 6,
    "provinceId": 31,
    "details": "อำเภอหนองกี่ , อำเภอโนนสุวรรณ , อำเภอนางรอง (ยกเว้นตำบลทรัพย์พระยา และตำบลชุมแสง)",
    "eligible": 153181,
    "postcode": [31110, 31210]
  },
  {
    "units": 265,
    "no": 7,
    "provinceId": 31,
    "details": "อำเภอบ้านกรวด , อำเภอประโคนชัย (ยกเว้นตำบลไพศาล)",
    "eligible": 153714,
    "postcode": [31140, 31180]
  },
  {
    "units": 270,
    "no": 8,
    "provinceId": 31,
    "details": "อำเภอละหานทราย , อำเภอปะคำ , อำเภอโนนดินแดง , อำเภอเฉลิมพระเกียรติ , อำเภอนางรอง (เฉพาะตำบลทรัพย์พระยา และตำบลชุมแสง)",
    "eligible": 154142,
    "postcode": [31110, 31170, 31220, 31260]
  },
  {
    "units": 290,
    "no": 1,
    "provinceId": 32,
    "details": "อำเภอเมืองสุรินทร์ (เฉพาะตำบลเทนมีย์ ตำบลตระแสง ตำบลอ็อง ตำบลสวาย ตำบลนาบัว ตำบลเฉนียง ตำบลคอโค ตำบลนอกเมือง และตำบลสำโรง) , อำเภอลำดวน (ยกเว้นตำบลตร าดม) , อำเภอปราสาท (เฉพาะตำบลบ้านไทร ตำบลทมอ ตำบลไพล ตำบลโคกยาง ตำบลเชื้อเพลิง ตำบลทุ่งมน ตำบลสมุด และตำบลปะทัดบุ)",
    "eligible": 153949,
    "postcode": [32000, 32140, 32220]
  },
  {
    "units": 278,
    "no": 2,
    "provinceId": 32,
    "details": "อำเภอเขวาสินรินทร์ , อำเภอเมืองสุรินทร์ (ยกเว้นตำบลเทนมีย์ ตำบลตระแสง ตำบลอ็อง ตำบลสวาย ตำบลนาบัว ตำบลเฉนียง ตำบลคอโค ตำบลนอกเมือง และตำบลสำโรง) , อำเภอศีขรภูมิ (เฉพาะตำบลช่างปี่ และตำบลจารพัตร)",
    "eligible": 155448,
    "postcode": [32000, 32110]
  },
  {
    "units": 330,
    "no": 3,
    "provinceId": 32,
    "details": "อำเภอจอมพระ , อำเภอสนม (เฉพาะตำบลสนม ตำบลหนองระฆัง ตำบลนานวน ตำบลแคน และตำบลหนองอียอ ) อำเภอโนนนารายณ์ , อำเภอท่าตูม (เฉพาะตำบลเมืองแก ตำบลบะ ตำบลหนองเมธี ตำบลบัวโคก และตำบลกระโพ) , อำเภอรัตนบุรี (เฉพาะตำบลหนองบัวบาน ตำบลเบิด และตำบลยางสว่าง)",
    "eligible": 156968,
    "postcode": [32120, 32130, 32160, 32180]
  },
  {
    "units": 320,
    "no": 4,
    "provinceId": 32,
    "details": "อำเภอชุมพลบุรี , อำเภอท่าตูม (ยกเว้นตำบลเมืองแก ตำบลบะ ตำบลหนองเมธี ตำบลบัวโคก และตำบลกระโพ) , อำเภอรัตนบุรี (ยกเว้นตำบลหนองบัวบาน ตำบลเบิด และตำบลยางสว่าง) , อำเภอสนม (เฉพาะตำบลโพนโก)",
    "eligible": 156787,
    "postcode": [32120, 32130, 32160, 32190]
  },
  {
    "units": 326,
    "no": 5,
    "provinceId": 32,
    "details": "อำเภอสำโรงทาบ , อำเภอศีขรภูมิ (ยกเว้นตำบลช่างปี่ และตำบลจารพัตร) อำเภอศรีณรงค์ (เฉพาะตำบลตรวจ และตำบลแจนแวน) , อำเภอลำดวน (เฉพาะตำบลตร าดม) , อำเภอสนม (เฉพาะตำบลหัวงัว)",
    "eligible": 157052,
    "postcode": [32110, 32150, 32160, 32170, 32220]
  },
  {
    "units": 295,
    "no": 6,
    "provinceId": 32,
    "details": "อำเภอบัวเชด , อำเภอสังขะ , อำเภอศรีณรงค์ (ยกเว้นตำบลตรวจ และตำบลแจนแวน)",
    "eligible": 150900,
    "postcode": [32150, 32230]
  },
  {
    "units": 288,
    "no": 7,
    "provinceId": 32,
    "details": "อำเภอกาบเชิง , อำเภอพนมดงรัก , อำเภอปราสาท (ยกเว้นตำบลบ้านไทร ตำบลทมอ ตำบลไพล ตำบลโคกยาง ตำบลเชื้อเพลิง ตำบลทุ่งมน ตำบลสมุด และตำบลปะทัดบุ)",
    "eligible": 147477,
    "postcode": [32140, 32210]
  },
  {
    "units": 337,
    "no": 1,
    "provinceId": 33,
    "details": "อำเภอเมืองศรีสะเกษ , อำเภอวังหิน",
    "eligible": 148552,
    "postcode": [33000, 33270]
  },
  {
    "units": 330,
    "no": 2,
    "provinceId": 33,
    "details": "อำเภอกันทรารมย์ , อำเภอโนนคูณ , อำเภอน้ำเกลี้ยง",
    "eligible": 145348,
    "postcode": [33130, 33250]
  },
  {
    "units": 329,
    "no": 3,
    "provinceId": 33,
    "details": "อำเภอกันทรลักษณ์ (เฉพาะตำบลภูเงิน) , อำเภอเบญจลักษ์ , อำเภอศรีรัตนะ , อำเภอพยุห์ , อำเภอไพรบึง",
    "eligible": 144961,
    "postcode": [33110, 33180, 33230, 33240]
  },
  {
    "units": 275,
    "no": 4,
    "provinceId": 33,
    "details": "อำเภอกันทรลักษณ์ (ยกเว้นตำบลภูเงิน)",
    "eligible": 145928,
    "postcode": [33110]
  },
  {
    "units": 280,
    "no": 5,
    "provinceId": 33,
    "details": "อำเภอขุนหาญ , อำเภอภูสิงห์ , อำเภอขุขันธ (เฉพาะตำบลปรือใหญ่ ตำบลนิคมพัฒนา ตำบลศรีตระกูล และตำบลตาอุด)",
    "eligible": 143310,
    "postcode": [33140, 33150]
  },
  {
    "units": 347,
    "no": 6,
    "provinceId": 33,
    "details": "อำเภอขุขันธ์ (ยกเว้นตำบลปรือใหญ่ ตำบลนิคมพัฒนา ตำบลศรีตระกูล และตำบลตาอุด) , อำเภอปรางค์กู่ (ยกเว้นตำบลสำโรงปราสาท และตำบลตูม)",
    "eligible": 139462,
    "postcode": [33140, 33170]
  },
  {
    "units": 399,
    "no": 7,
    "provinceId": 33,
    "details": "อำเภออุทุมพรพิสัย , อำเภอห้วยทับทัน , อำเภอปรางค์กู่ (เฉพาะตำบลสำโรงปราสาท และตำบลตูม) , อำเภอเมืองจันทร์",
    "eligible": 143076,
    "postcode": [33120, 33170, 33210]
  },
  {
    "units": 419,
    "no": 8,
    "provinceId": 33,
    "details": "อำเภอราษีไศล , อำเภอยางชุมน้อย , อำเภอศิลาลาด , อำเภอบึงบูรพ์ , อำเภอโพธิ์ศรีสุวรรณ",
    "eligible": 139753,
    "postcode": [33120, 33160, 33190, 33220]
  },
  {
    "units": 266,
    "no": 1,
    "provinceId": 34,
    "details": "อำเภอเมืองอุบลราชธานี (ยกเว้นตำบลกระโสบ และตำบลกุดลาด)",
    "eligible": 161052,
    "postcode": [34000]
  },
  {
    "units": 347,
    "no": 2,
    "provinceId": 34,
    "details": "อำเภอเขื่องใน , อำเภอม่วงสามสิบ",
    "eligible": 155871,
    "postcode": [34140, 34150, 34320]
  },
  {
    "units": 284,
    "no": 3,
    "provinceId": 34,
    "details": "อำเภอวารินช าราบ , อำเภอนาเยีย",
    "eligible": 147286,
    "postcode": [34160, 34190, 34310]
  },
  {
    "units": 230,
    "no": 4,
    "provinceId": 34,
    "details": "อำเภอเดชอุดม (ยกเว้นตำบลทุ่งเทิง)",
    "eligible": 131152,
    "postcode": [34160]
  },
  {
    "units": 362,
    "no": 5,
    "provinceId": 34,
    "details": "อำเภอตระการพืชผล , อำเภอกุดข้าวปุ้น , อำเภอเหล่าเสือโก้ก",
    "eligible": 150390,
    "postcode": [34000, 34130, 34270]
  },
  {
    "units": 283,
    "no": 6,
    "provinceId": 34,
    "details": "อำเภอเขมราฐ , อำเภอโพธิ์ไทร , อำเภอนาตาล , อำเภอศรีเมืองใหม่ (เฉพาะตำบลนาเลิน และตำบลหนามแท่ง)",
    "eligible": 133775,
    "postcode": [34170, 34250, 34340]
  },
  {
    "units": 296,
    "no": 7,
    "provinceId": 34,
    "details": "อำเภอศรีเมืองใหม่ (ยกเว้นตำบลนาเลิน และตำบลหนามแท่ง) , อำเภอโขงเจียม , อำเภอตาลสุม , อำเภอดอนมดแดง , อำเภอเมืองอุบลราชธานี (เฉพาะตำบลกระโสบ และตำบลกุดลาด)",
    "eligible": 133340,
    "postcode": [34000, 34220, 34250, 34330]
  },
  {
    "units": 290,
    "no": 8,
    "provinceId": 34,
    "details": "อำเภอพิบูลมังสาหาร , อำเภอสว่างวีระวงศ์ , อำเภอสิรินธร (เฉพาะตำบลฝางคำ ตำบลคันไร่ และตำบลนิคมสร้างตนเอง ลำโดมน้อย)",
    "eligible": 141296,
    "postcode": [34110, 34190, 34350]
  },
  {
    "units": 252,
    "no": 9,
    "provinceId": 34,
    "details": "อำเภอบุณฑริก , อำเภอนาจะหลวย อำเภอสิรินธร (ยกเว้นตำบลฝางคำ ตำบลคันไร่ และตำบลนิคมสร้างตนเอง ลำโดมน้อย)",
    "eligible": 138248,
    "postcode": [34230, 34280, 34350]
  },
  {
    "units": 341,
    "no": 10,
    "provinceId": 34,
    "details": "อำเภอน้ำยืน , อำเภอน้ำขุ่น , อำเภอทุ่งศรีอุดม , อำเภอสำโรง , อำเภอเดชอุดม (เฉพาะตำบลทุ่งเทิง)",
    "eligible": 149147,
    "postcode": [34160, 34260, 34360]
  },
  {
    "units": 297,
    "no": 1,
    "provinceId": 35,
    "details": "อำเภอเมืองยโสธร , อำเภอทรายมูล , อำเภอป่าติ้ว (เฉพาะตำบลศรีฐาน และตำบลกระจาย) , อำเภอคำเขื่อนแก้ว (เฉพาะตำบลทุ่งมน)",
    "eligible": 145823,
    "postcode": [35000, 35110, 35150, 35170]
  },
  {
    "units": 301,
    "no": 2,
    "provinceId": 35,
    "details": "อำเภอคำเขื่อนแก้ว (ยกเว้นตำบลทุ่งมน) , อำเภอมหาชนะชัย , อำเภอค้อวัง , อำเภอป่าติ้ว (ยกเว้นตำบลศรีฐาน และตำบลกระจาย) , อำเภอไทยเจริญ (เฉพาะตำบลน้ำคำ และตำบลคำไผ่)",
    "eligible": 142675,
    "postcode": [35110, 35120, 35130, 35150, 35160, 35180]
  },
  {
    "units": 294,
    "no": 3,
    "provinceId": 35,
    "details": "อำเภอเลิงนกทา , อำเภอกุดชุม , อำเภอไทยเจริญ (ยกเว้นตำบลน้ำคำ และตำบลคำไผ่)",
    "eligible": 144405,
    "postcode": [35120, 35140]
  },
  {
    "units": 283,
    "no": 1,
    "provinceId": 36,
    "details": "อำเภอเมืองชัยภูมิ",
    "eligible": 147431,
    "postcode": [36000, 36240]
  },
  {
    "units": 365,
    "no": 2,
    "provinceId": 36,
    "details": "อำเภอจัตุรัส , อำเภอเนินสง่า , อำเภอบ้านเขว้า , อำเภอหนองบัวระเหว",
    "eligible": 152773,
    "postcode": [36130, 36170, 36220, 36250]
  },
  {
    "units": 310,
    "no": 3,
    "provinceId": 36,
    "details": "อำเภอเทพสถิต , อำเภอบำเหน็จณรงค์ , อำเภอภักดีชุมพล , อำเภอซับใหญ่",
    "eligible": 130706,
    "postcode": [36130, 36160, 36220, 36230, 36260]
  },
  {
    "units": 317,
    "no": 4,
    "provinceId": 36,
    "details": "อำเภอเกษตรสมบูรณ์ , อำเภอหนองบัวแดง",
    "eligible": 169209,
    "postcode": [36120, 36210]
  },
  {
    "units": 274,
    "no": 5,
    "provinceId": 36,
    "details": "อำเภอภูเขียว , อำเภอคอนสาร",
    "eligible": 146346,
    "postcode": [36110, 36180]
  },
  {
    "units": 336,
    "no": 6,
    "provinceId": 36,
    "details": "อำเภอแก้งคร้อ , อำเภอคอนสวรรค์ , อำเภอบ้านแท่น",
    "eligible": 153954,
    "postcode": [36140, 36150, 36190]
  },
  {
    "units": 308,
    "no": 1,
    "provinceId": 37,
    "details": "อำเภอเมืองอำนาจเจริญ , อำเภอหัวตะพาน",
    "eligible": 144406,
    "postcode": [37000, 37240]
  },
  {
    "units": 321,
    "no": 2,
    "provinceId": 37,
    "details": "อำเภอปทุมราชวงศา , อำเภอลืออำนาจ อำเภอชานุมาน , อำเภอเสนางคนิคม , อำเภอพนา",
    "eligible": 153929,
    "postcode": [37000, 37110, 37180, 37210, 37290]
  },
  {
    "units": 302,
    "no": 1,
    "provinceId": 38,
    "details": "อำเภอเมืองบึงกาฬ , อำเภอโซ่พิสัย , อำเภอปากคาด , อำเภอบุ่งคล้า",
    "eligible": 162217,
    "postcode": [38000, 38170, 38190]
  },
  {
    "units": 294,
    "no": 2,
    "provinceId": 38,
    "details": "อำเภอเซกา , อำเภอพรเจริญ , อำเภอศรีวิไล , อำเภอบึงโขงหลง",
    "eligible": 160222,
    "postcode": [38150, 38180, 38210, 38220]
  },
  {
    "units": 271,
    "no": 1,
    "provinceId": 39,
    "details": "อำเภอเมืองหนองบัวลำภู , อำเภอโนนสัง (เฉพาะตำบลกุดดู่ ตำบลโนนสัง ตำบลบ้านค้อ ตำบลบ้านถิ่น และตำบลปางกู่)",
    "eligible": 136229,
    "postcode": [39000, 39140]
  },
  {
    "units": 264,
    "no": 2,
    "provinceId": 39,
    "details": "อำเภอศรีบุญเรือง , อำเภอนาวัง (ยกเว้นตำบลวังปลาป้อม) , อำเภอโนนสัง (ยกเว้นตำบลกุดดู่ ตำบลโนนสัง ตำบลบ้านค้อ ตำบลบ้านถิ่น และตำบลปางกู่)",
    "eligible": 133612,
    "postcode": [39140, 39170, 39180]
  },
  {
    "units": 236,
    "no": 3,
    "provinceId": 39,
    "details": "อำเภอนากลาง , อำเภอสุวรรณคูหา , อำเภอนาวัง (เฉพาะตำบลวังปลาป้อม)",
    "eligible": 130250,
    "postcode": [39170, 39270, 39350]
  },
  {
    "units": 185,
    "no": 1,
    "provinceId": 40,
    "details": "อำเภอเมืองขอนแก่น (เฉพาะตำบลในเมือง ตำบลเมืองเก่า ตำบลบ้านเป็ด)",
    "eligible": 155571,
    "postcode": [40000]
  },
  {
    "units": 241,
    "no": 2,
    "provinceId": 40,
    "details": "อำเภอซ าสูง , อำเภอเมืองขอนแก่น (เฉพาะตำบลศิลา ตำบลบ้านทุ่ม ตำบลพระลับ ตำบลหนองตูม ตำบลท่าพระ ตำบลบึงเนียม ตำบลโคกสี ตำบลบ้านหว้า ตำบลดอนช้าง ตำบลดอนหัน และตำบลแดงใหญ่)",
    "eligible": 156606,
    "postcode": [40000, 40170, 40260]
  },
  {
    "units": 283,
    "no": 3,
    "provinceId": 40,
    "details": "อำเภอกระนวน , อำเภอน้ำพอง",
    "eligible": 154844,
    "postcode": [40140, 40170, 40310]
  },
  {
    "units": 283,
    "no": 4,
    "provinceId": 40,
    "details": "อำเภอเขาสวนกวาง , อำเภออุบลรัตน์ , อำเภอบ้านฝาง , อำเภอเมืองขอนแก่น (เฉพาะตำบลบ้านค้อ ตำบลสำราญ ตำบลโนนท่อน และตำบลสาวะถี)",
    "eligible": 153698,
    "postcode": [40000, 40250, 40270, 40280]
  },
  {
    "units": 267,
    "no": 5,
    "provinceId": 40,
    "details": "อำเภอหนองนาคำ , อำเภอภูเวียง , อำเภอเวียงเก่า , อำเภอสีชมพู (ยกเว้นตำบลนาจาน ตำบลซ ายาง ตำบลภูห่าน และตำบลหนองแดง)",
    "eligible": 133254,
    "postcode": [40150, 40220]
  },
  {
    "units": 252,
    "no": 6,
    "provinceId": 40,
    "details": "อำเภอชุมแพ , อำเภอภูผาม่าน , อำเภอสีชมพู (เฉพาะตำบลนาจาน ตำบลซ ายาง ตำบลภูห่าน และตำบลหนองแดง)",
    "eligible": 138703,
    "postcode": [40130, 40220, 40290, 40350]
  },
  {
    "units": 271,
    "no": 7,
    "provinceId": 40,
    "details": "อำเภอหนองเรือ , อำเภอมัญจาคีร",
    "eligible": 133289,
    "postcode": [40160, 40210, 40240]
  },
  {
    "units": 311,
    "no": 8,
    "provinceId": 40,
    "details": "อำเภอพล , อำเภอแวงน้อย , อำเภอแวงใหญ่ , อำเภอโคกโพธิ์ไชย",
    "eligible": 147249,
    "postcode": [40120, 40160, 40230, 40330]
  },
  {
    "units": 296,
    "no": 9,
    "provinceId": 40,
    "details": "อำเภอหนองสองห้อง , อำเภอโนนศิลา , อำเภอชนบท , อำเภอเปือยน้อย",
    "eligible": 138025,
    "postcode": [40110, 40180, 40190, 40340]
  },
  {
    "units": 248,
    "no": 10,
    "provinceId": 40,
    "details": "อำเภอบ้านไผ่ , อำเภอบ้านแฮด , อำเภอพระยืน",
    "eligible": 135357,
    "postcode": [40110, 40320]
  },
  {
    "units": 232,
    "no": 1,
    "provinceId": 41,
    "details": "อำเภอเมืองอุดรธานี (เฉพาะเทศบาลนครอุดรธานี เทศบาลเมืองหนองสำโรง เทศบาลตำบลหนองบัว และตำบลนาดี)",
    "eligible": 146021,
    "postcode": [41000]
  },
  {
    "units": 278,
    "no": 2,
    "provinceId": 41,
    "details": "อำเภอเพ็ญ , อำเภอเมืองอุดรธานี (เฉพาะตำบลบ้านขาว ตำบลนาข่า ตำบลนากว้าง ตำบลกุดสระ ตำบลหนองบัว ตำบลสามพร้าว ตำบลหมูม่น และเทศบาลตำบลนาข่า) , อำเภอพิบูลย์รักษ์ (ยกเว้นตำบลนาทราย)",
    "eligible": 156933,
    "postcode": [41000, 41130, 41150]
  },
  {
    "units": 279,
    "no": 3,
    "provinceId": 41,
    "details": "อำเภอบ้านดุง , อำเภอทุ่งฝน , อำเภอสร้างคอม , อำเภอพิบูลย์รักษ์ (เฉพาะตำบลนาทราย)",
    "eligible": 152097,
    "postcode": [41130, 41190, 41260, 41310]
  },
  {
    "units": 266,
    "no": 4,
    "provinceId": 41,
    "details": "อำเภอหนองหาน , อำเภอประจักษ์ศิลปาคม , อำเภอเมืองอุดรธานี (เฉพาะตำบลโนนสูง ตำบลหนองนาคำ เทศบาลตำบลหนองไผ่ เทศบาลตำบล หนองขอนกว้าง และเทศบาลเมืองโนนสูง - น้ำคำ)",
    "eligible": 155130,
    "postcode": [41000, 41110, 41130, 41320, 41330]
  },
  {
    "units": 286,
    "no": 5,
    "provinceId": 41,
    "details": "อำเภอวังสามหมอ , อำเภอศรีธาตุ , อำเภอไชยวาน , อำเภอกู่แก้ว , อำเภอกุมภวาปี (เฉพาะตำบลสีออ เทศบาลตำบลเวียงคำ และตำบลท่าลี่)",
    "eligible": 153145,
    "postcode": [41110, 41130, 41230, 41280, 41290]
  },
  {
    "units": 286,
    "no": 6,
    "provinceId": 41,
    "details": "อำเภอหนองแสง , อำเภอโนนสะอาด , อำเภอกุมภวาปี (ยกเว้นตำบลสีออ เทศบาลตำบลเวียงคำ และตำบลท่าลี่) , อำเภอเมืองอุดรธานี (เฉพาะตำบลบ้านจั่น เทศบาลตำบลบ้านจั่น และตำบลบ้านตาด)",
    "eligible": 164851,
    "postcode": [41000, 41110, 41240, 41340, 41370]
  },
  {
    "units": 267,
    "no": 7,
    "provinceId": 41,
    "details": "อำเภอกุดจับ , อำเภอหนองวัวซอ , อำเภอเมืองอุดรธานี (เฉพาะตำบลหนองไฮ ตำบลโคกสะอาด ตำบลนิคมสงเคราะห์ ตำบลเชียงพิณ ตำบลเชียงยืน ตำบลบ้านเลื่อม และเทศบาลตำบล นิคมสงเคราะห์)",
    "eligible": 151020,
    "postcode": [41000, 41220, 41250, 41360]
  },
  {
    "units": 283,
    "no": 8,
    "provinceId": 41,
    "details": "อำเภอบ้านผือ , อำเภอน้ำโสม , อำเภอนายูง",
    "eligible": 153581,
    "postcode": [41160, 41210, 41380]
  },
  {
    "units": 303,
    "no": 1,
    "provinceId": 42,
    "details": "อำเภอเมืองเลย , อำเภอปากชม , อำเภอนาด้วง , อำเภอเอราวัณ (เฉพาะตำบลเอราวัณ และตำบลผาอินทร์แปลง)",
    "eligible": 167516,
    "postcode": [42000, 42100, 42150, 42210, 42220]
  },
  {
    "units": 327,
    "no": 2,
    "provinceId": 42,
    "details": "อำเภอหนองหิน , อำเภอภูหลวง , อำเภอภูกระดึง อำเภอผาขาว , อำเภอวังสะพุง (เฉพาะตำบลวังสะพุง ตำบลหนองหญ้าปล้อง ตำบลผาน้อย ตำบลผาบิ้ง ตำบลโคกขมิ้น และตำบลศรีสงคราม) , อำเภอเอราวัณ (ยกเว้นตำบลเอราวัณ และตำบลผาอินทร์แปลง)",
    "eligible": 167676,
    "postcode": [42130, 42180, 42190, 42220, 42230, 42240]
  },
  {
    "units": 379,
    "no": 3,
    "provinceId": 42,
    "details": "อำเภอนาแห้ว , อำเภอด่านซ้าย , อำเภอภูเรือ , อำเภอท่าลี่ , อำเภอเชียงคาน , อำเภอวังสะพุง (ยกเว้นตำบลวังสะพุง ตำบลหนองหญ้าปล้อง ตำบลผาน้อย ตำบลผาบิ้ง ตำบลโคกขมิ้น และตำบลศรีสงคราม)",
    "eligible": 167284,
    "postcode": [42110, 42120, 42130, 42140, 42160, 42170]
  },
  {
    "units": 262,
    "no": 1,
    "provinceId": 43,
    "details": "อำเภอเมืองหนองคาย (ยกเว้นตำบลพระธาตุบังพวน และตำบลเวียงคุก ) , อำเภอสระใคร , อำเภอโพนพิสัย (เฉพาะตำบลเหล่าต่างคำ ตำบลทุ่งหลวง และตำบลสร้างนางขาว )",
    "eligible": 136558,
    "postcode": [43000, 43100, 43120]
  },
  {
    "units": 268,
    "no": 2,
    "provinceId": 43,
    "details": "อำเภอโพนพิสัย (ยกเว้นตำบลเหล่าต่างคำ ตำบลทุ่งหลวง และตำบลสร้างนางขาว ) , อำเภอรัตนวาปี , อำเภอเฝ้าไร่",
    "eligible": 133133,
    "postcode": [43120]
  },
  {
    "units": 250,
    "no": 3,
    "provinceId": 43,
    "details": "อำเภอเมืองหนองคาย (เฉพาะตำบลพระธาตุบังพวน และตำบลเวียงคุก ) อำเภอท่าบ่อ , อำเภอศรีเชียงใหม่ , อำเภอโพธิ์ตาก , อำเภอสังคม",
    "eligible": 135790,
    "postcode": [43000, 43100, 43110, 43130, 43160]
  },
  {
    "units": 299,
    "no": 1,
    "provinceId": 44,
    "details": "อำเภอเมืองมหาสารคาม , อำเภอแกดำ , อำเภอโกสุมพิสัย (เฉพาะตำบลแก้งแก)",
    "eligible": 158147,
    "postcode": [44000, 44140, 44190]
  },
  {
    "units": 386,
    "no": 2,
    "provinceId": 44,
    "details": "อำเภอวาปีปทุม , อำเภอบรบือ (ยกเว้นตำบลวังไชย ตำบลโนนแดง ตำบลหนองคูขาด และตำบลโนนราษี)",
    "eligible": 154068,
    "postcode": [44120, 44130]
  },
  {
    "units": 343,
    "no": 3,
    "provinceId": 44,
    "details": "อำเภอพยัคฆภูมิพิสัย , อำเภอยางสีสุราช , อำเภอนาดูน , อำเภอนาเชือก (ยกเว้นตำบลสำโรง ตำบลหนองแดง ตำบลปอพาน ตำบลหนองเม็ก และตำบลหนองเรือ)",
    "eligible": 152705,
    "postcode": [44110, 44170, 44180, 44210]
  },
  {
    "units": 375,
    "no": 4,
    "provinceId": 44,
    "details": "อำเภอกุดรัง , อำเภอนาเชือก (เฉพาะตำบลสำโรง ตำบลหนองแดง ตำบลปอพาน ตำบลหนองเม็ก และตำบลหนองเรือ) , อำเภอโกสุมพิสัย (เฉพาะตำบลหัวขวาง ตำบลยางน้อย ตำบลวังยาว ตำบลเขวาไร่ ตำบลแพง ตำบลหนองเหล็ก ตำบลเหล่า ตำบลหนองบอน ตำบลโพนงาม ตำบลยางท่าแจ้ง ตำบลหนองกุงสวรรค์ และตำบลดอนกลาง ) , อำเภอบรบือ (เฉพาะตำบลวังไชย ตำบลโนนแดง ตำบลหนองคูขาด และตำบลโนนราษี)",
    "eligible": 154573,
    "postcode": [44130, 44140, 44170]
  },
  {
    "units": 374,
    "no": 5,
    "provinceId": 44,
    "details": "อำเภอกันทรวิชัย , อำเภอเชียงยืน , อำเภอชื่นชม , อำเภอโกสุมพิสัย (เฉพาะตำบลหนองบัว ตำบลแห่ใต้ ตำบลเลิงใต้ และตำบลเขื่อน)",
    "eligible": 157949,
    "postcode": [44140, 44150, 44160]
  },
  {
    "units": 337,
    "no": 1,
    "provinceId": 45,
    "details": "อำเภอเมืองร้อยเอ็ด , อำเภอศรีสมเด็จ",
    "eligible": 155773,
    "postcode": [45000, 45280]
  },
  {
    "units": 406,
    "no": 2,
    "provinceId": 45,
    "details": "อำเภอโพธิ์ชัย , อำเภอจังหาร , อำเภอเชียงขวัญ , อำเภอธวัชบุรี (เฉพาะตำบลธวัชบุรี ตำบลนิเวศน์ ตำบลหนองพอก ตำบลมะอึ ตำบลอุ่มเม้า ตำบลหนองไผ่ ตำบลไพศาล ตำบลธงธานี และตำบลบึงนคร)",
    "eligible": 152132,
    "postcode": [45000, 45170, 45230]
  },
  {
    "units": 345,
    "no": 3,
    "provinceId": 45,
    "details": "อำเภอโพนทอง , อำเภอเมยวดี , อำเภอหนองพอก (เฉพาะตำบลหนองพอก ตำบลภูเขาทอง ตำบลบึงงาม ตำบลผาน้ำย้อย ตำบลโคกสว่าง ตำบลกกโพธิ์ และตำบลรอบเมือง )",
    "eligible": 146564,
    "postcode": [45110, 45210, 45250]
  },
  {
    "units": 378,
    "no": 4,
    "provinceId": 45,
    "details": "อำเภอเสลภูมิ , อำเภอทุ่งเขาหลวง , อำเภอธวัชบุรี (ยกเว้นตำบลธวัชบุรี ตำบลนิเวศน์ ตำบลหนองพอก ตำบลมะอึ ตำบลอุ่มเม้า ตำบลหนองไผ่ ตำบลไพศาล ตำบลธงธานี และตำบลบึงนคร) , อำเภอหนองพอก (ยกเว้นตำบลหนองพอก ตำบลภูเขาทอง ตำบลบึงงาม ตำบลผาน้ำย้อย ตำบลโคกสว่าง ตำบลกกโพธิ์ และตำบลรอบเมือง) , อำเภออาจสามารถ (เฉพาะตำบลบ้านแจ้ง และตำบลโพนเมือง)",
    "eligible": 149780,
    "postcode": [45120, 45160, 45170, 45210]
  },
  {
    "units": 390,
    "no": 5,
    "provinceId": 45,
    "details": "อำเภอพนมไพร , อำเภอหนองฮี , อำเภอโพนทราย , อำเภออาจสามารถ (ยกเว้นตำบลบ้านแจ้ง และตำบลโพนเมือง)",
    "eligible": 148862,
    "postcode": [45140, 45160, 45240]
  },
  {
    "units": 328,
    "no": 6,
    "provinceId": 45,
    "details": "อำเภอสุวรรณภูมิ , อำเภอเมืองสรวง , อำเภอจตุรพักตรพิมาน (เฉพาะตำบลหัวช้าง ตำบลดงแดง ตำบลดงกลาง ตำบลป่าสังข์ ตำบลน้ำใส และตำบลศรีโคตร)",
    "eligible": 146462,
    "postcode": [45130, 45180, 45220]
  },
  {
    "units": 360,
    "no": 7,
    "provinceId": 45,
    "details": "อำเภอเกษตรวิสัย , อำเภอปทุมรัตต์ , อำเภอจตุรพักตรพิมาน (ยกเว้นตำบลหัวช้าง ตำบลดงแดง ตำบลดงกลาง ตำบลป่าสังข์ ตำบลน้ำใส และตำบลศรีโคตร)",
    "eligible": 153244,
    "postcode": [45150, 45180, 45190]
  },
  {
    "units": 315,
    "no": 1,
    "provinceId": 46,
    "details": "อำเภอเมืองกาฬสินธุ์ , อำเภอร่องคำ , อำเภอกมลาไสย (เฉพาะตำบลโคกสมบูรณ์ ตำบลดงลิง ตำบลเจ้าท่า และตำบลโพนงาม)",
    "eligible": 154397,
    "postcode": [46000, 46130, 46210]
  },
  {
    "units": 296,
    "no": 2,
    "provinceId": 46,
    "details": "อำเภอยางตลาด , อำเภอฆ้องชัย , อำเภอกมลาไสย (ยกเว้นตำบลโคกสมบูรณ์ ตำบลดงลิง ตำบลเจ้าท่า และตำบลโพนงาม)",
    "eligible": 156911,
    "postcode": [46120, 46130]
  },
  {
    "units": 343,
    "no": 3,
    "provinceId": 46,
    "details": "อำเภอหนองกุงศรี , อำเภอห้วยเม็ก , อำเภอท่าคันโท , อำเภอสหัสขันธ์",
    "eligible": 156234,
    "postcode": [46140, 46170, 46190, 46220]
  },
  {
    "units": 316,
    "no": 4,
    "provinceId": 46,
    "details": "อำเภอสมเด็จ , อำเภอคำม่วง , อำเภอนามน , อำเภอสามชัย อำเภอดอนจาน",
    "eligible": 157553,
    "postcode": [46000, 46150, 46180, 46230]
  },
  {
    "units": 320,
    "no": 5,
    "provinceId": 46,
    "details": "อำเภอกุฉินารายณ์ , อำเภอเขาวง , อำเภอนาคู , อำเภอห้วยผึ้ง",
    "eligible": 160076,
    "postcode": [46110, 46160, 46240]
  },
  {
    "units": 248,
    "no": 1,
    "provinceId": 47,
    "details": "อำเภอเมืองสกลนคร",
    "eligible": 152688,
    "postcode": [47000, 47220, 47230]
  },
  {
    "units": 278,
    "no": 2,
    "provinceId": 47,
    "details": "อำเภอกุสุมาลย์ , อำเภอโพนนาแก้ว , อำเภอโคกศรีสุพรรณ , อำเภอเต่างอย , อำเภอภูพาน",
    "eligible": 139056,
    "postcode": [47180, 47210, 47230, 47260, 47280]
  },
  {
    "units": 264,
    "no": 3,
    "provinceId": 47,
    "details": "อำเภอพังโคน , อำเภอวาริชภูมิ , อำเภอส่องดาว , อำเภอนิคมน้ำอูน , อำเภอกุดบาก",
    "eligible": 147683,
    "postcode": [47150, 47160, 47180, 47190, 47270]
  },
  {
    "units": 263,
    "no": 4,
    "provinceId": 47,
    "details": "อำเภอสว่างแดนดิน , อำเภอเจริญศิลป์",
    "eligible": 153111,
    "postcode": [47110, 47240, 47290]
  },
  {
    "units": 284,
    "no": 5,
    "provinceId": 47,
    "details": "อำเภอวานรนิวาส , อำเภอบ้านม่วง",
    "eligible": 151201,
    "postcode": [47120, 47140]
  },
  {
    "units": 294,
    "no": 6,
    "provinceId": 47,
    "details": "อำเภอพรรณานิคม , อำเภออากาศอำนวย , อำเภอคำตากล้า",
    "eligible": 150403,
    "postcode": [47130, 47170, 47220, 47250]
  },
  {
    "units": 270,
    "no": 1,
    "provinceId": 48,
    "details": "อำเภอศรีสงคราม , อำเภอนาหว้า , อำเภอบ้านแพง , อำเภอนาทม",
    "eligible": 139077,
    "postcode": [48140, 48150, 48180]
  },
  {
    "units": 268,
    "no": 2,
    "provinceId": 48,
    "details": "อำเภอท่าอุเทน , อำเภอโพนสวรรค์ , อำเภอเมืองนครพนม (เฉพาะเทศบาลเมือง นครพนม ตำบลท่าค้อ ตำบลนาราชควาย ตำบลหนองญาติ และตำบลอาจสามารถ)",
    "eligible": 137912,
    "postcode": [48000, 48120, 48190]
  },
  {
    "units": 273,
    "no": 3,
    "provinceId": 48,
    "details": "อำเภอธาตุพนม , อำเภอเรณูนคร , อำเภอเมืองนครพนม (เฉพาะตำบลขามเฒ่า ตำบลคำเตย ตำบลนาทราย ตำบลดงขวาง ตำบลบ้านกลาง และตำบลโพธิ์ตาก)",
    "eligible": 140086,
    "postcode": [48000, 48110, 48170]
  },
  {
    "units": 289,
    "no": 4,
    "provinceId": 48,
    "details": "อำเภอนาแก , อำเภอปลาปาก , อำเภอวังยาง , อำเภอเมืองนครพนม (เฉพาะตำบลกุรุคุ ตำบลบ้านผึ้ง ตำบลวังตามัว)",
    "eligible": 140328,
    "postcode": [48000, 48130, 48160]
  },
  {
    "units": 257,
    "no": 1,
    "provinceId": 49,
    "details": "อำเภอเมืองมุกดาหาร (เฉพาะตำบลมุกดาหาร ตำบลศรีบุญเรือง ตำบลคำอาฮวน ตำบลดงเย็น ตำบลบางทรายใหญ่ ตำบลบ้านโคก ตำบลคำป่าหลาย ตำบลกุดแข้ ตำบลนาสีนวน และตำบลโพนทราย) , อำเภอดอนตาล , อำเภอหว้านใหญ่",
    "eligible": 136444,
    "postcode": [49000, 49120, 49150]
  },
  {
    "units": 319,
    "no": 2,
    "provinceId": 49,
    "details": "อำเภอเมืองมุกดาหาร (ยกเว้นตำบลมุกดาหาร ตำบลศรีบุญเรือง ตำบลคำอาฮวน ตำบลดงเย็น ตำบลบางทรายใหญ่ ตำบลบ้านโคก ตำบลคำป่าหลาย ตำบลกุดแข้ ตำบลนาสีนวน และตำบลโพนทราย) , อำเภอคำชะอี , อำเภอนิคมคำสร้อย , อำเภอดงหลวง , อำเภอหนองสูง",
    "eligible": 135540,
    "postcode": [49000, 49110, 49130, 49140, 49160]
  },
  {
    "units": 305,
    "no": 1,
    "provinceId": 50,
    "details": "อำเภอเมืองเชียงใหม",
    "eligible": 189994,
    "postcode": [50000, 50100, 50200, 50300]
  },
  {
    "units": 257,
    "no": 2,
    "provinceId": 50,
    "details": "อำเภอสารภี , อำเภอหางดง",
    "eligible": 142374,
    "postcode": [50140, 50230, 50340]
  },
  {
    "units": 312,
    "no": 3,
    "provinceId": 50,
    "details": "อำเภอสันกำแพง , อำเภอดอยสะเก็ด , อำเภอแม่ออน",
    "eligible": 150657,
    "postcode": [50130, 50220]
  },
  {
    "units": 299,
    "no": 4,
    "provinceId": 50,
    "details": "อำเภอสันทราย , อำเภอพร้าว , อำเภอแม่แตง (เฉพาะตำบลแม่หอพระ)",
    "eligible": 154830,
    "postcode": [50150, 50190, 50210, 50290]
  },
  {
    "units": 313,
    "no": 5,
    "provinceId": 50,
    "details": "อำเภอแม่ริม , อำเภอสะเมิง , อำเภอกัลยาณิวัฒนา , อำเภอแม่แตง (ยกเว้นตำบลแม่หอพระ)",
    "eligible": 151657,
    "postcode": [50150, 50180, 50250, 50330, 58130]
  },
  {
    "units": 177,
    "no": 6,
    "provinceId": 50,
    "details": "อำเภอไชยปราการ , อำเภอเชียงดาว , อำเภอเวียงแหง",
    "eligible": 96262,
    "postcode": [50170, 50320, 50350]
  },
  {
    "units": 243,
    "no": 7,
    "provinceId": 50,
    "details": "อำเภอฝาง , อำเภอแม่อาย",
    "eligible": 119429,
    "postcode": [50110, 50280, 50320]
  },
  {
    "units": 377,
    "no": 8,
    "provinceId": 50,
    "details": "อำเภอสันป่าตอง , อำเภอจอมทอง , อำเภอแม่วาง , อำเภอดอยหล่อ",
    "eligible": 164327,
    "postcode": [50120, 50160, 50240, 50360]
  },
  {
    "units": 335,
    "no": 9,
    "provinceId": 50,
    "details": "อำเภอฮอด , อำเภอแม่แจ่ม , อำเภออมก๋อย , อำเภอดอยเต่า",
    "eligible": 140784,
    "postcode": [50240, 50260, 50270, 50310]
  },
  {
    "units": 321,
    "no": 1,
    "provinceId": 51,
    "details": "อำเภอเมืองลำพูน , อำเภอแม่ทา , อำเภอบ้านธิ",
    "eligible": 168456,
    "postcode": [51000, 51140, 51150, 51170, 51180]
  },
  {
    "units": 358,
    "no": 2,
    "provinceId": 51,
    "details": "อำเภอเวียงหนองล่อง , อำเภอบ้านโฮ่ง , อำเภอทุ่งหัวช้าง , อำเภอลี้ , อำเภอป่าซาง",
    "eligible": 167687,
    "postcode": [51110, 51120, 51130, 51160]
  },
  {
    "units": 283,
    "no": 1,
    "provinceId": 52,
    "details": "อำเภอเมืองลำปาง (ยกเว้นเทศบาลเมือง เขลางค์นคร ตำบลพิชัยนอกเขต เทศบาลนครลำปาง และตำบลบ้านเสด็จ) , อำเภอห้างฉัตร",
    "eligible": 156455,
    "postcode": [52000, 52100, 52190]
  },
  {
    "units": 298,
    "no": 2,
    "provinceId": 52,
    "details": "อำเภองาว , อำเภอวังเหนือ , อำเภอแจ้ห่ม , อำเภอเมืองปาน",
    "eligible": 142953,
    "postcode": [52110, 52120, 52140, 52240]
  },
  {
    "units": 280,
    "no": 3,
    "provinceId": 52,
    "details": "อำเภอเมืองลำปาง (เฉพาะเทศบาลเมือง เขลางค์นคร ตำบลพิชัยนอกเขต เทศบาลนครลำปาง และตำบลบ้านเสด็จ) อำเภอแม่เมาะ , อำเภอแม่ทะ",
    "eligible": 160705,
    "postcode": [52000, 52150, 52220]
  },
  {
    "units": 321,
    "no": 4,
    "provinceId": 52,
    "details": "อำเภอเกาะคา , อำเภอเสริมงาม , อำเภอสบปราบ , อำเภอเถิน , อำเภอแม่พริก",
    "eligible": 164672,
    "postcode": [52130, 52160, 52170, 52180, 52210, 52230]
  },
  {
    "units": 353,
    "no": 1,
    "provinceId": 53,
    "details": "อำเภอเมืองอุตรดิตถ์ , อำเภอตรอน , อำเภอลับแล",
    "eligible": 195029,
    "postcode": [53000, 53130, 53140, 53170, 53210]
  },
  {
    "units": 354,
    "no": 2,
    "provinceId": 53,
    "details": "อำเภอพิชัย , อำเภอทองแสนขัน , อำเภอท่าปลา , อำเภอน้ำปาด , อำเภอฟากท่า , อำเภอบ้านโคก",
    "eligible": 176138,
    "postcode": [53110, 53120, 53150, 53160, 53180, 53190, 53220, 53230]
  },
  {
    "units": 404,
    "no": 1,
    "provinceId": 54,
    "details": "อำเภอเมืองแพร่ , อำเภอสอง , อำเภอร้องกวาง , อำเภอหนองม่วงไข่",
    "eligible": 196794,
    "postcode": [54000, 54120, 54140, 54170]
  },
  {
    "units": 345,
    "no": 2,
    "provinceId": 54,
    "details": "อำเภอสูงเม่น , อำเภอเด่นชัย , อำเภอลอง , อำเภอวังชิ้น",
    "eligible": 177527,
    "postcode": [54000, 54110, 54130, 54150, 54160]
  },
  {
    "units": 282,
    "no": 1,
    "provinceId": 55,
    "details": "อำเภอเมืองน่าน , อำเภอภูเพียง , อำเภอท่าวังผา",
    "eligible": 139796,
    "postcode": [55000, 55140]
  },
  {
    "units": 344,
    "no": 2,
    "provinceId": 55,
    "details": "อำเภอเวียงสา , อำเภอนาน้อย , อำเภอนาหมื่น , อำเภอแม่จริม , อำเภอบ้านหลวง , อำเภอสันติสุข",
    "eligible": 131281,
    "postcode": [55110, 55150, 55170, 55180, 55190, 55210]
  },
  {
    "units": 295,
    "no": 3,
    "provinceId": 55,
    "details": "อำเภอปัว , อำเภอเชียงกลาง , อำเภอสองแคว , อำเภอบ่อเกลือ , อำเภอเฉลิมพระเกียรติ , อำเภอทุ่งช้าง",
    "eligible": 118475,
    "postcode": [55120, 55130, 55160, 55220]
  },
  {
    "units": 270,
    "no": 1,
    "provinceId": 56,
    "details": "อำเภอเมืองพะเยา , อำเภอแม่ใจ",
    "eligible": 130139,
    "postcode": [56000, 56130]
  },
  {
    "units": 284,
    "no": 2,
    "provinceId": 56,
    "details": "อำเภอเชียงคำ , อำเภอจุน , อำเภอภูซาง",
    "eligible": 129500,
    "postcode": [56110, 56150]
  },
  {
    "units": 294,
    "no": 3,
    "provinceId": 56,
    "details": "อำเภอดอกคำใต้ , อำเภอภูกามยาว , อำเภอปง , อำเภอเชียงม่วน",
    "eligible": 134298,
    "postcode": [56000, 56120, 56140, 56160]
  },
  {
    "units": 223,
    "no": 1,
    "provinceId": 57,
    "details": "อำเภอเมืองเชียงราย (ยกเว้นตำบลท่าสาย ตำบลสันทราย ตำบลป่าอ้อดอนชัย ตำบลห้วยสัก และตำบลดอยลาน)",
    "eligible": 134853,
    "postcode": [57000, 57100]
  },
  {
    "units": 310,
    "no": 2,
    "provinceId": 57,
    "details": "อำเภอแม่ลาว , อำเภอแม่สรวย , อำเภอเวียงป่าเป้า",
    "eligible": 139931,
    "postcode": [57000, 57170, 57180, 57250, 57260]
  },
  {
    "units": 346,
    "no": 3,
    "provinceId": 57,
    "details": "อำเภอพาน , อำเภอเมืองเชียงราย (เฉพาะตำบลท่าสาย ตำบลสันทราย ตำบลป่าอ้อดอนชัย ตำบลห้วยสัก และตำบลดอยลาน)",
    "eligible": 150311,
    "postcode": [57000, 57120, 57250, 57280]
  },
  {
    "units": 338,
    "no": 4,
    "provinceId": 57,
    "details": "อำเภอเทิง , อำเภอป่าแดด , อำเภอเวียงชัย อำเภอเวียงเชียงรุ้ง",
    "eligible": 150315,
    "postcode": [57160, 57190, 57210, 57230]
  },
  {
    "units": 285,
    "no": 5,
    "provinceId": 57,
    "details": "อำเภอเชียงของ , อำเภอเวียงแก่น , อำเภอขุนตาล , อำเภอพญาเม็งราย , อำเภอเชียงแสน (เฉพาะตำบลแม่เงิน)",
    "eligible": 139552,
    "postcode": [57140, 57150, 57290, 57310, 57340]
  },
  {
    "units": 204,
    "no": 6,
    "provinceId": 57,
    "details": "อำเภอแม่สาย , อำเภอเชียงแสน (ยกเว้นตำบลแม่เงิน) , อำเภอดอยหลวง",
    "eligible": 106724,
    "postcode": [57110, 57130, 57150, 57220]
  },
  {
    "units": 227,
    "no": 7,
    "provinceId": 57,
    "details": "อำเภอแม่จัน , อำเภอแม่ฟ้าหลวง",
    "eligible": 114957,
    "postcode": [57110, 57240, 57270]
  },
  {
    "units": 458,
    "no": 1,
    "provinceId": 58,
    "details": "ทั้งจังหวัด",
    "eligible": 174412,
    "postcode": [58000, 58110, 58120, 58130, 58140, 58150]
  },
  {
    "units": 228,
    "no": 1,
    "provinceId": 60,
    "details": "อำเภอเมืองนครสวรรค์ (เฉพาะตำบลนครสวรรค์ตก (ในเขตเทศบาลนคร นครสวรรค์ ) ตำบลนครสวรรค์ออก (ในเขตเทศบาลนคร นครสวรรค์ ) ตำบลแควใหญ่ (ในเขตเทศบาลนคร นครสวรรค์ ) ตำบลปากน้ำโพ ตำบลวัดไทร ตำบลบางม่วง ตำบลบ้านมะเกลือ ตำบลบ้านแก่ง ตำบลหนองกรด ตำบลหนองกระโดน และตำบลบึงเสนาท) , อำเภอเก้าเลี้ยว (เฉพาะตำบลมหาโพธิ) , อำเภอลาดยาว (เฉพาะตำบลหนองยาว)",
    "eligible": 141704,
    "postcode": [60000, 60150, 60230, 60240]
  },
  {
    "units": 267,
    "no": 2,
    "provinceId": 60,
    "details": "อำเภอเมืองนครสวรรค์ (ยกเว้นตำบลนครสวรรค์ตก (ในเขตเทศบาลนคร นครสวรรค์ ) ตำบลนครสวรรค์ออก (ในเขตเทศบาลนคร นครสวรรค์ ) ตำบลแควใหญ่ (ในเขตเทศบาลนคร นครสวรรค์ ) ตำบลปากน้ำโพ ตำบลวัดไทร ตำบลบางม่วง ตำบลบ้านมะเกลือ ตำบลบ้านแก่ง ตำบลหนองกรด ตำบลหนองกระโดน และตำบลบึงเสนาท) , อำเภอพยุหะคีรี , อำเภอโกรกพระ , อำเภอชุมแสง (เฉพาะตำบลทับกฤชใต้)",
    "eligible": 142618,
    "postcode": [60000, 60130, 60170, 60240, 60250]
  },
  {
    "units": 297,
    "no": 3,
    "provinceId": 60,
    "details": "อำเภอบรรพตพิสัย , อำเภอชุมแสง (ยกเว้นตำบลทับกฤชใต้) , อำเภอเก้าเลี้ยว (ยกเว้นตำบลมหาโพธิ)",
    "eligible": 142228,
    "postcode": [60120, 60180, 60230, 60250]
  },
  {
    "units": 281,
    "no": 4,
    "provinceId": 60,
    "details": "อำเภอหนองบัว , อำเภอไพศาลี (ยกเว้นตำบลตะคร้ อ ตำบลสำโรงชัย และตำบลโพธิ์ประสาท) , อำเภอท่าตะโก",
    "eligible": 141236,
    "postcode": [60110, 60160, 60220]
  },
  {
    "units": 288,
    "no": 5,
    "provinceId": 60,
    "details": "อำเภอตาคลี , อำเภอตากฟ้า , อำเภอไพศาลี (เฉพาะตำบลตะคร้ อ ตำบลสำโรงชัย และตำบลโพธิ์ประสาท)",
    "eligible": 142566,
    "postcode": [60140, 60190, 60210, 60220, 60260]
  },
  {
    "units": 250,
    "no": 6,
    "provinceId": 60,
    "details": "อำเภอลาดยาว (ยกเว้นตำบลหนองยาว) , อำเภอแม่วงก์ , อำเภอแม่เปิน , อำเภอชุมตาบง",
    "eligible": 133969,
    "postcode": [60150]
  },
  {
    "units": 326,
    "no": 1,
    "provinceId": 61,
    "details": "อำเภอเมืองอุทัยธานี , อำเภอหนองขาหย่าง , อำเภอทัพทัน , อำเภอสว่างอารมณ์ , อำเภอหนองฉาง (ยกเว้นตำบลทุ่งโพ ตำบลเขากวางทอง และตำบลเขาบางแกรก)",
    "eligible": 128340,
    "postcode": [61000, 61110, 61120, 61130, 61150, 61170]
  },
  {
    "units": 288,
    "no": 2,
    "provinceId": 61,
    "details": "อำเภอลานสัก , อำเภอห้วยคต , อำเภอบ้านไร่ , อำเภอหนองฉาง (เฉพาะตำบลทุ่งโพ ตำบลเขากวางทอง และตำบลเขาบางแกรก )",
    "eligible": 132400,
    "postcode": [61110, 61140, 61160, 61170, 61180]
  },
  {
    "units": 244,
    "no": 1,
    "provinceId": 62,
    "details": "อำเภอเมืองกำแพงเพชร (เฉพาะตำบลในเมือง ตำบลหนองปลิง ตำบลอ่างทอง ตำบลเทพนคร ตำบลนครชุม ตำบลคลองแม่ลาย ตำบลธำมรงค์ ตำบลนิคมทุ่งโพธิ์ทะเล ตำบลวังทอง ตำบลลานดอกไม้ ตำบลคณฑี ตำบลท่าขุนราม ตำบลนาบ่อคำ และตำบลทรงธรรม)",
    "eligible": 143494,
    "postcode": [62000, 62160]
  },
  {
    "units": 296,
    "no": 2,
    "provinceId": 62,
    "details": "อำเภอพรานกระต่าย , อำเภอลานกระบือ , อำเภอโกสัมพีนคร , อำเภอไทรงาม (เฉพาะตำบลมหาชัย ตำบลพานทอง ตำบลหนองคล้า และตำบลหนองทอง) , อำเภอเมืองกำแพงเพชร (เฉพาะตำบลสระแก้ว)",
    "eligible": 145172,
    "postcode": [62000, 62110, 62150, 62170]
  },
  {
    "units": 266,
    "no": 3,
    "provinceId": 62,
    "details": "อำเภอคลองขลุง , อำเภอคลองลาน , อำเภอปางศิลาทอง , อำเภอเมืองกำแพงเพชร (เฉพาะตำบลไตรตรึงษ์)",
    "eligible": 138238,
    "postcode": [62120, 62160, 62180]
  },
  {
    "units": 283,
    "no": 4,
    "provinceId": 62,
    "details": "อำเภอขาณุวรลักษบุรี , อำเภอบึงสามัคคี , อำเภอทรายทองวัฒนา , อำเภอไทรงาม (ยกเว้นตำบลมหาชัย ตำบลพานทอง ตำบลหนองคล้า และตำบลหนองทอง)",
    "eligible": 139761,
    "postcode": [62130, 62140, 62150, 62190, 62210]
  },
  {
    "units": 288,
    "no": 1,
    "provinceId": 63,
    "details": "อำเภอเมืองตาก , อำเภอบ้านตาก (ยกเว้นตำบลท้องฟ้า และตำบลเกาะตะเภา) , อำเภอวังเจ้า , อำเภอสามเงา",
    "eligible": 158935,
    "postcode": [63000, 63120, 63130]
  },
  {
    "units": 178,
    "no": 2,
    "provinceId": 63,
    "details": "อำเภอแม่สอด (ยกเว้นตำบลแม่กาษา ตำบลท่าสายลวด และตำบลแม่ปะ) , อำเภอพบพระ , อำเภออุ้มผาง",
    "eligible": 116421,
    "postcode": [63110, 63160, 63170]
  },
  {
    "units": 194,
    "no": 3,
    "provinceId": 63,
    "details": "อำเภอแม่สอด (เฉพาะตำบลแม่กาษา ตำบลท่าสายลวด และตำบลแม่ปะ) , อำเภอแม่ระมาด , อำเภอท่าสองยาง , อำเภอบ้านตาก (เฉพาะตำบลท้องฟ้า และตำบลเกาะตะเภา)",
    "eligible": 113751,
    "postcode": [63110, 63120, 63140, 63150]
  },
  {
    "units": 317,
    "no": 1,
    "provinceId": 64,
    "details": "อำเภอเมืองสุโขทัย , อำเภอศรีสำโรง , อำเภอกงไกรลาศ (เฉพาะตำบลไกรกลาง ตำบลไกรใน ตำบลกกแรต และตำบลบ้านใหม่สุขเกษม)",
    "eligible": 158866,
    "postcode": [64000, 64120, 64170, 64210, 64220]
  },
  {
    "units": 313,
    "no": 2,
    "provinceId": 64,
    "details": "อำเภอทุ่งเสลี่ยม , อำเภอบ้านด่านลานหอย , อำเภอคีรีมาศ , อำเภอกงไกรลาศ (ยกเว้นตำบลไกรกลาง ตำบลไกรใน ตำบลกกแรต และตำบลบ้านใหม่สุขเกษม)",
    "eligible": 158367,
    "postcode": [64140, 64150, 64160, 64170, 64230]
  },
  {
    "units": 331,
    "no": 3,
    "provinceId": 64,
    "details": "อำเภอศรีสัชนาลัย , อำเภอศรีนคร , อำเภอสวรรคโลก",
    "eligible": 165126,
    "postcode": [64110, 64130, 64180, 64190]
  },
  {
    "units": 209,
    "no": 1,
    "provinceId": 65,
    "details": "อำเภอเมืองพิษณุโลก (เฉพาะตำบลในเมือง ตำบลอรัญญิก ตำบลวัดจันทร์ ตำบลบ้านคลอง ตำบลพลายชุมพล ตำบลท่าทอง ตำบลบึงพระ ตำบลวัดพริก และตำบลวังน้ำคู้)",
    "eligible": 139971,
    "postcode": [65000, 65230]
  },
  {
    "units": 239,
    "no": 2,
    "provinceId": 65,
    "details": "อำเภอพรหมพิราม , อำเภอเมืองพิษณุโลก (เฉพาะตำบลไผ่ขอดอน ตำบลจอมทอง ตำบลมะขามสูง ตำบลปากโทก ตำบลบ้านกร่าง ตำบลหัวรอ ตำบลสมอแข ตำบลดอนทอง และตำบลบ้านป่า)",
    "eligible": 143884,
    "postcode": [65000, 65150, 65180]
  },
  {
    "units": 266,
    "no": 3,
    "provinceId": 65,
    "details": "อำเภอวังทอง , อำเภอเนินมะปราง",
    "eligible": 141489,
    "postcode": [65130, 65190, 65220]
  },
  {
    "units": 278,
    "no": 4,
    "provinceId": 65,
    "details": "อำเภอบางระกำ , อำเภอบางกระทุ่ม , อำเภอเมืองพิษณุโลก (เฉพาะตำบลงิ้วงาม และตำบลท่าโพธิ์)",
    "eligible": 137231,
    "postcode": [65000, 65110, 65140, 65210, 65230, 65240]
  },
  {
    "units": 278,
    "no": 5,
    "provinceId": 65,
    "details": "อำเภอนครไทย , อำเภอวัดโบสถ์ , อำเภอชาติตระการ",
    "eligible": 130434,
    "postcode": [65120, 65160, 65170]
  },
  {
    "units": 294,
    "no": 1,
    "provinceId": 66,
    "details": "อำเภอเมืองพิจิตร , อำเภอสามง่าม , อำเภอวชิรบารมี",
    "eligible": 145995,
    "postcode": [66000, 66140, 66170, 66220]
  },
  {
    "units": 339,
    "no": 2,
    "provinceId": 66,
    "details": "อำเภอตะพานหิน , อำเภอทับคล้อ , อำเภอดงเจริญ , อำเภอวังทรายพูน , อำเภอสากเหล็ก",
    "eligible": 144293,
    "postcode": [66110, 66150, 66160, 66180, 66210, 66230]
  },
  {
    "units": 343,
    "no": 3,
    "provinceId": 66,
    "details": "อำเภอโพทะเล , อำเภอบางมูลนาก , อำเภอบึงนาราง , อำเภอโพธิ์ประทับช้าง",
    "eligible": 143130,
    "postcode": [66120, 66130, 66190, 66210]
  },
  {
    "units": 311,
    "no": 1,
    "provinceId": 67,
    "details": "อำเภอเมืองเพชรบูรณ์ (เฉพาะเทศบาลเมือง เพชรบูรณ์ เทศบาลตำบลนางั่ว เทศบาลตำบลท่าพล ตำบลท่าพล ตำบลสะเดียง ตำบลป่าเลา ตำบลดงมูลเหล็ก ตำบลบ้านโคก และตำบลห้วยใหญ่) , อำเภอเขาค้อ , อำเภอหล่มสัก (เฉพาะตำบลน้ำชุน ตำบลบุ่งน้ำเต้า ตำบลหนองไขว่ ตำบลน้ำก้อ และตำบลบุ่งคล้า )",
    "eligible": 157773,
    "postcode": [67000, 67110, 67270, 67280]
  },
  {
    "units": 340,
    "no": 2,
    "provinceId": 67,
    "details": "อำเภอหล่มเก่า , อำเภอน้ำหนาว อำเภอหล่มสัก (ยกเว้นตำบลน้ำชุน ตำบลบุ่งน้ำเต้า ตำบลหนองไขว่ ตำบลน้ำก้อ และตำบลบุ่งคล้า)",
    "eligible": 158733,
    "postcode": [67110, 67120, 67260]
  },
  {
    "units": 343,
    "no": 3,
    "provinceId": 67,
    "details": "อำเภอชนแดน , อำเภอวังโป่ง , อำเภอเมืองเพชรบูรณ์ (เฉพาะเทศบาลตำบลวังชมภู ตำบลวังชมภู ตำบลห้วยสะแก ตำบลนายม ตำบลบ้านโตก ตำบลน้ำร้อน ตำบลชอนไพร ตำบลตะเบาะ และตำบลนาป่า)",
    "eligible": 156499,
    "postcode": [67000, 67150, 67190, 67210, 67240]
  },
  {
    "units": 307,
    "no": 4,
    "provinceId": 67,
    "details": "อำเภอบึงสามพัน , อำเภอหนองไผ่ , อำเภอเมืองเพชรบูรณ์ (เฉพาะตำบลระวิง) , อำเภอวิเชียรบุรี (เฉพาะตำบลสามแยก)",
    "eligible": 155938,
    "postcode": [67130, 67140, 67160, 67210, 67220, 67230]
  },
  {
    "units": 321,
    "no": 5,
    "provinceId": 67,
    "details": "อำเภอศรีเทพ , อำเภอวิเชียรบุรี (ยกเว้นตำบลสามแยก)",
    "eligible": 155981,
    "postcode": [67130, 67170, 67180]
  },
  {
    "units": 210,
    "no": 1,
    "provinceId": 70,
    "details": "อำเภอเมืองราชบุรี (ยกเว้นตำบลน้ำพุ ตำบลห้วยไผ่ ตำบลดอนแร่ และตำบลอ่างทอง)",
    "eligible": 137428,
    "postcode": [70000]
  },
  {
    "units": 220,
    "no": 2,
    "provinceId": 70,
    "details": "อำเภอเมืองราชบุรี (เฉพาะตำบลน้ำพุ ตำบลห้วยไผ ตำบลดอนแร่ และตำบลอ่างทอง) , อำเภอปากท่อ , อำเภอสวนผึ้ง , อำเภอวัดเพลง , อำเภอบ้านคา",
    "eligible": 130411,
    "postcode": [70000, 70140, 70170, 70180]
  },
  {
    "units": 194,
    "no": 3,
    "provinceId": 70,
    "details": "อำเภอโพธาราม (ยกเว้นตำบลบ้านฆ้อง ตำบลบ้านสิงห์ และตำบลดอนทราย ) , อำเภอจอมบึง",
    "eligible": 136325,
    "postcode": [70120, 70150]
  },
  {
    "units": 182,
    "no": 4,
    "provinceId": 70,
    "details": "อำเภอบ้านโป่ง",
    "eligible": 137674,
    "postcode": [70110, 70190]
  },
  {
    "units": 200,
    "no": 5,
    "provinceId": 70,
    "details": "อำเภอดำเนินสะดวก , อำเภอบางแพ , อำเภอโพธาราม (เฉพาะตำบลบ้านฆ้อง ตำบลบ้านสิงห์ และตำบลดอนทราย )",
    "eligible": 133968,
    "postcode": [70120, 70130, 70160, 70210]
  },
  {
    "units": 213,
    "no": 1,
    "provinceId": 71,
    "details": "อำเภอเมืองกาญจนบุรี , อำเภอศรีสวัสดิ์",
    "eligible": 148284,
    "postcode": [71000, 71190, 71220, 71250]
  },
  {
    "units": 173,
    "no": 2,
    "provinceId": 71,
    "details": "อำเภอท่าม่วง อำเภอด่านมะขามเตี้ย",
    "eligible": 112148,
    "postcode": [71110, 71130, 71260]
  },
  {
    "units": 238,
    "no": 3,
    "provinceId": 71,
    "details": "อำเภอท่ามะกา , อำเภอพนมทวน",
    "eligible": 147979,
    "postcode": [70190, 71120, 71130, 71140, 71170]
  },
  {
    "units": 272,
    "no": 4,
    "provinceId": 71,
    "details": "อำเภอเลาขวัญ , อำเภอห้วยกระเจา , อำเภอหนองปรือ , อำเภอบ่อพลอย",
    "eligible": 139007,
    "postcode": [71160, 71170, 71210, 71220]
  },
  {
    "units": 136,
    "no": 5,
    "provinceId": 71,
    "details": "อำเภอทองผาภูมิ , อำเภอสังขละบุรี , อำเภอไทรโยค",
    "eligible": 83628,
    "postcode": [71150, 71180, 71240]
  },
  {
    "units": 295,
    "no": 1,
    "provinceId": 72,
    "details": "อำเภอเมืองสุพรรณบุรี , อำเภอบางปลาม้า (เฉพาะตำบลจรเข้ใหญ่ ตำบลโคกคราม ตำบลบางปลาม้า ตำบลองครักษ์ ตำบลตะค่า ตำบลวัดดาว ตำบลบ้านแหลม และตำบลไผ่กองดิน)",
    "eligible": 174267,
    "postcode": [72000, 72150, 72210, 72230]
  },
  {
    "units": 309,
    "no": 2,
    "provinceId": 72,
    "details": "อำเภอบางปลาม้า (ยกเว้นตำบลจรเข้ใหญ่ ตำบลโคกคราม ตำบลบางปลาม้า ตำบลองครักษ์ ตำบลตะค่า ตำบลวัดดาว ตำบลบ้านแหลม และตำบลไผ่กองดิน) , อำเภอสองพี่น้อง , อำเภออู่ทอง (เฉพาะตำบลเจดีย์ ตำบลกระจัน ตำบลจรเข้สามพัน ตำบลยุ้งทะลาย ตำบลบ้านดอน ตำบลสระยายโสม ตำบลดอนมะเกลือ และตำบลสระพังลาน)",
    "eligible": 166681,
    "postcode": [72110, 72150, 72160, 72190, 72220]
  },
  {
    "units": 307,
    "no": 3,
    "provinceId": 72,
    "details": "อำเภออู่ทอง (ยกเว้นตำบลเจดีย์ ตำบลกระจัน ตำบลจรเข้สามพัน ตำบลยุ้งทะลาย ตำบลบ้านดอน ตำบลสระยายโสม ตำบลดอนมะเกลือ และตำบลสระพังลาน) , อำเภอดอนเจดีย์ (เฉพาะตำบลไร่รถ ตำบลดอนเจดีย์ และตำบลหนองสาหร่าย) , อำเภอสามชุก , อำเภอศรีประจันต์",
    "eligible": 172573,
    "postcode": [72130, 72140, 72160, 72170, 72220]
  },
  {
    "units": 327,
    "no": 4,
    "provinceId": 72,
    "details": "อำเภอด่านช้าง , อำเภอเดิมบางนางบวช , อำเภอหนองหญ้าไซ , อำเภอดอนเจดีย์ (ยกเว้นตำบลไร่รถ ตำบลดอนเจดีย์ และตำบลหนองสาหร่าย)",
    "eligible": 163929,
    "postcode": [72120, 72170, 72180, 72240, 72250]
  },
  {
    "units": 237,
    "no": 1,
    "provinceId": 73,
    "details": "อำเภอเมืองนครปฐม (เฉพาะตำบลพระปฐมเจดีย์ ตำบลนครปฐม ตำบลลำพยา ตำบลบ่อพลับ ตำบลหนองปากโลง ตำบลสนามจันทร์ ตำบลห้วยจรเข้ ตำบลโพรงมะเดื่อ ตำบลหนองดินแดง ตำบลสวนป่าน ตำบลสระกะเทียม ตำบลวังตะกู ตำบลวังเย็น ตำบลพระประโทน และตำบลบางแขม)",
    "eligible": 144684,
    "postcode": [73000]
  },
  {
    "units": 259,
    "no": 2,
    "provinceId": 73,
    "details": "อำเภอเมืองนครปฐม (เฉพาะตำบลบ้านยาง ตำบลทัพหลวง ตำบลหนองงูเหลือม ตำบลตาก้อง ตำบลทุ่งน้อย และตำบลมาบแค) , อำเภอกำแพงแสน",
    "eligible": 142909,
    "postcode": [73000, 73140, 73180]
  },
  {
    "units": 242,
    "no": 3,
    "provinceId": 73,
    "details": "อำเภอบางเลน , อำเภอดอนตูม , อำเภอพุทธมณฑล",
    "eligible": 145678,
    "postcode": [73130, 73150, 73170, 73190]
  },
  {
    "units": 221,
    "no": 4,
    "provinceId": 73,
    "details": "อำเภอเมืองนครปฐม (เฉพาะตำบลดอนยายหอม ตำบลสามควายเผือก ตำบลธรรมศาลา และตำบลถนนขาด) , อำเภอนครชัยศรี , อำเภอสามพราน (เฉพาะตำบลตลาดจินดา ตำบลคลองจินดา และตำบลบางช้าง)",
    "eligible": 147338,
    "postcode": [73000, 73110, 73120]
  },
  {
    "units": 187,
    "no": 5,
    "provinceId": 73,
    "details": "อำเภอสามพราน (ยกเว้นตำบลตลาดจินดา ตำบลคลองจินดา และตำบลบางช้าง)",
    "eligible": 143444,
    "postcode": [73110, 73160, 73210, 73220]
  },
  {
    "units": 167,
    "no": 1,
    "provinceId": 74,
    "details": "อำเภอเมืองสมุทรสาคร (เฉพาะตำบลมหาชัย ตำบลท่าฉลอม ตำบลโกรกกราก ตำบลบางหญ้าแพรก ตำบลท่าทราย ตำบลคอกกระบือ ตำบลโคกขาม ตำบลพันท้ายนรสิงห์ และตำบลบางน้ำจืด)",
    "eligible": 141508,
    "postcode": [74000]
  },
  {
    "units": 165,
    "no": 2,
    "provinceId": 74,
    "details": "อำเภอเมืองสมุทรสาคร (เฉพาะตำบลนาดี) , อำเภอกระทุ่มแบน (เฉพาะตำบลอ้อมน้อย ตำบลสวนหลวง ตำบลตลาดกระทุ่มแบน ตำบลดอนไก่ดี ตำบลท่าไม้ ตำบลแคราย และตำบลคลองมะเดื่อ)",
    "eligible": 138723,
    "postcode": [74000, 74110, 74130]
  },
  {
    "units": 238,
    "no": 3,
    "provinceId": 74,
    "details": "อำเภอเมืองสมุทรสาคร (เฉพาะตำบลนาโคก ตำบลกาหลง ตำบลบางโทรัด ตำบลบ้านบ่อ ตำบลชัยมงคล ตำบลบางกระเจ้า ตำบลบ้านเกาะ และตำบลท่าจีน) , อำเภอกระทุ่มแบน (ยกเว้นตำบลอ้อมน้อย ตำบลสวนหลวง ตำบลตลาดกระทุ่มแบน ตำบลดอนไก่ดี ตำบลท่าไม้ ตำบลแคราย และตำบลคลองมะเดื่อ) , อำเภอบ้านแพ้ว",
    "eligible": 144883,
    "postcode": [74000, 74110, 74120, 74130]
  },
  {
    "units": 260,
    "no": 1,
    "provinceId": 75,
    "details": "ทั้งจังหวัด",
    "eligible": 157769,
    "postcode": [75000, 75110, 75120]
  },
  {
    "units": 222,
    "no": 1,
    "provinceId": 76,
    "details": "อำเภอเมืองเพชรบุรี , อำเภอบ้านแหลม (ยกเว้นตำบลบ้านแหลม ตำบลบางตะบูน และตำบลบางตะบูนออก)",
    "eligible": 123818,
    "postcode": [76000, 76100, 76110]
  },
  {
    "units": 220,
    "no": 2,
    "provinceId": 76,
    "details": "อำเภอชะอำ , อำเภอท่ายาง",
    "eligible": 130786,
    "postcode": [76120, 76130]
  },
  {
    "units": 241,
    "no": 3,
    "provinceId": 76,
    "details": "อำเภอเขาย้อย , อำเภอบ้านลาด , อำเภอหนองหญ้าปล้อง , อำเภอแก่งกระจาน , อำเภอบ้านแหลม (เฉพาะตำบลบ้านแหลม ตำบลบางตะบูน และตำบลบางตะบูนออก)",
    "eligible": 127715,
    "postcode": [76110, 76140, 76150, 76160, 76170]
  },
  {
    "units": 210,
    "no": 1,
    "provinceId": 77,
    "details": "อำเภอเมืองประจวบคีรีขันธ์ , อำเภอกุยบุรี , อำเภอสามร้อยยอด",
    "eligible": 143954,
    "postcode": [77000, 77120, 77150, 77180, 77210]
  },
  {
    "units": 200,
    "no": 2,
    "provinceId": 77,
    "details": "อำเภอหัวหิน , อำเภอปราณบุรี",
    "eligible": 146057,
    "postcode": [77110, 77120, 77220]
  },
  {
    "units": 201,
    "no": 3,
    "provinceId": 77,
    "details": "อำเภอทับสะแก , อำเภอบางสะพาน , อำเภอบางสะพานน้อย",
    "eligible": 126931,
    "postcode": [77130, 77140, 77170, 77190, 77230]
  },
  {
    "units": 202,
    "no": 1,
    "provinceId": 80,
    "details": "อำเภอเมืองนครศรีธรรมราช (เฉพาะตำบลท่าไร่ ตำบลปากนคร ตำบลบางจาก ตำบลไชยมนตรี ตำบลมะม่วงสองต้น ตำบลโพธิ์เสด็จ ตำบลท่าเรือ ตำบลท่าซัก และเทศบาลนคร นครศรีธรรมราช)",
    "eligible": 148475,
    "postcode": [80000, 80330]
  },
  {
    "units": 375,
    "no": 2,
    "provinceId": 80,
    "details": "อำเภอปากพนัง , อำเภอเชียรใหญ่ , อำเภอหัวไทร",
    "eligible": 163995,
    "postcode": [80140, 80170, 80190, 80330]
  },
  {
    "units": 233,
    "no": 3,
    "provinceId": 80,
    "details": "อำเภอพระพรหม , อำเภอเฉลิมพระเกียรติ , อำเภอชะอวด , อำเภอจุฬาภรณ์",
    "eligible": 151759,
    "postcode": [80000, 80130, 80180, 80190, 80290]
  },
  {
    "units": 238,
    "no": 4,
    "provinceId": 80,
    "details": "อำเภอทุ่งสง , อำเภอบางขัน",
    "eligible": 156411,
    "postcode": [80110, 80310, 80360]
  },
  {
    "units": 258,
    "no": 5,
    "provinceId": 80,
    "details": "อำเภอทุ่งใหญ่ , อำเภอถ้ำพรรณรา , อำเภอฉวาง , อำเภอพิปูน",
    "eligible": 146386,
    "postcode": [80150, 80240, 80250, 80260, 80270]
  },
  {
    "units": 222,
    "no": 6,
    "provinceId": 80,
    "details": "อำเภอร่อนพิบูลย์ , อำเภอลานสกา , อำเภอช้างกลาง , อำเภอนาบอน",
    "eligible": 139455,
    "postcode": [80130, 80220, 80230, 80250, 80350]
  },
  {
    "units": 222,
    "no": 7,
    "provinceId": 80,
    "details": "อำเภอเมืองนครศรีธรรมราช (ยกเว้นตำบลท่าไร่ ตำบลปากนคร ตำบลบางจาก ตำบลไชยมนตรี ตำบลมะม่วงสองต้น ตำบลโพธิ์เสด็จ ตำบลท่าเรือ ตำบลท่าซัก และเทศบาลนคร นครศรีธรรมราช) , อำเภอท่าศาลา",
    "eligible": 150011,
    "postcode": [80000, 80160, 80280, 80330]
  },
  {
    "units": 263,
    "no": 8,
    "provinceId": 80,
    "details": "อำเภอสิชล , อำเภอขนอม , อำเภอนบพิตำ , อำเภอพรหมคีรี",
    "eligible": 148575,
    "postcode": [80120, 80160, 80210, 80320, 80340]
  },
  {
    "units": 276,
    "no": 1,
    "provinceId": 81,
    "details": "อำเภอเมืองกระบี่ , อำเภออ่าวลึก , อำเภอปลายพระยา , อำเภอเขาพนม (เฉพาะตำบลหน้าเขา และตำบลเขาดิน)",
    "eligible": 170951,
    "postcode": [81000, 81110, 81140, 81160]
  },
  {
    "units": 299,
    "no": 2,
    "provinceId": 81,
    "details": "อำเภอเหนือคลอง , อำเภอคลองท่อม , อำเภอเกาะลันตา , อำเภอลำทับ , อำเภอเขาพนม (ยกเว้นตำบล หน้าเขา และตำบลเขาดิน)",
    "eligible": 172261,
    "postcode": [80240, 81120, 81130, 81140, 81150, 81170]
  },
  {
    "units": 346,
    "no": 1,
    "provinceId": 82,
    "details": "ทั้งจังหวัด",
    "eligible": 202831,
    "postcode": [
      82000,
      82110,
      82120,
      82130,
      82140,
      82150,
      82160,
      82170,
      82180,
      82190,
      83000
    ]
  },
  {
    "units": 172,
    "no": 1,
    "provinceId": 83,
    "details": "อำเภอเมืองภูเก็ต (ยกเว้นตำบลเกาะแก้ว ตำบลราไวย์ และตำบลกะรน)",
    "eligible": 145051,
    "postcode": [83000, 83100, 83130]
  },
  {
    "units": 194,
    "no": 2,
    "provinceId": 83,
    "details": "อำเภอถลาง , อำเภอกะทู้ , อำเภอเมืองภูเก็ต (เฉพาะตำบลเกาะแก้ว ตำบลราไวย์ และตำบลกะรน)",
    "eligible": 149655,
    "postcode": [83000, 83100, 83110, 83120, 83130, 83150]
  },
  {
    "units": 198,
    "no": 1,
    "provinceId": 84,
    "details": "อำเภอเมืองสุราษฎร์ธานี",
    "eligible": 135072,
    "postcode": [84000, 84100]
  },
  {
    "units": 230,
    "no": 2,
    "provinceId": 84,
    "details": "อำเภอกาญจนดิษฐ์ (ยกเว้นตำบลทุ่งรัง ตำบลช้างซ้าย ตำบลช้างขวา ตำบลป่าร่อน และตำบลคลองสระ) , อำเภอดอนสัก , อำเภอเกาะสมุย , อำเภอเกาะพะงัน",
    "eligible": 141642,
    "postcode": [84140, 84160, 84220, 84280, 84290, 84310, 84320, 84330, 84340]
  },
  {
    "units": 238,
    "no": 3,
    "provinceId": 84,
    "details": "อำเภอกาญจนดิษฐ์ (เฉพาะตำบลทุ่งรัง ตำบลช้างซ้าย ตำบลช้างขวา ตำบลป่าร่อน และตำบลคลองสระ) , อำเภอบ้านนาสาร , อำเภอเวียงสระ",
    "eligible": 131956,
    "postcode": [84120, 84160, 84190, 84270, 84290]
  },
  {
    "units": 237,
    "no": 4,
    "provinceId": 84,
    "details": "อำเภอพุนพิน , อำเภอบ้านนาเดิม , อำเภอคีรีรัฐนิคม (ยกเว้นตำบลท่าขนอน ตำบลน้ำหัก และตำบลบ้านยาง) , อำเภอเคียนซา (ยกเว้นตำบลบ้านเสด็จ )",
    "eligible": 134583,
    "postcode": [84130, 84180, 84210, 84240, 84260]
  },
  {
    "units": 230,
    "no": 5,
    "provinceId": 84,
    "details": "อำเภอพระแสง , อำเภอชัยบุรี , อำเภอพนม , อำเภอบ้านตาขุน , อำเภอเคียนซา (เฉพาะตำบลบ้านเสด็จ)",
    "eligible": 127355,
    "postcode": [84210, 84230, 84250, 84260, 84350]
  },
  {
    "units": 248,
    "no": 6,
    "provinceId": 84,
    "details": "อำเภอไชยา , อำเภอท่าชนะ , อำเภอท่าฉาง , อำเภอวิภาวดี , อำเภอคีรีรัฐนิคม (เฉพาะตำบลท่าขนอน ตำบลน้ำหัก และตำบลบ้านยาง)",
    "eligible": 132870,
    "postcode": [84110, 84150, 84170, 84180]
  },
  {
    "units": 203,
    "no": 1,
    "provinceId": 85,
    "details": "ทั้งจังหวัด",
    "eligible": 135654,
    "postcode": [85000, 85110, 85120, 85130]
  },
  {
    "units": 242,
    "no": 1,
    "provinceId": 86,
    "details": "อำเภอเมืองชุมพร (ยกเว้นตำบลวังใหม่ ตำบลบ้านนา ตำบลหาดพันไกร ตำบลบางลึก และตำบลถ้ำสิงห์) , อำเภอสวี (ยกเว้นตำบลเขาทะลุ และตำบลเขาค่าย)",
    "eligible": 133454,
    "postcode": [86000, 86100, 86120, 86130, 86190]
  },
  {
    "units": 239,
    "no": 2,
    "provinceId": 86,
    "details": "อำเภอเมืองชุมพร (เฉพาะตำบลวังใหม่ ตำบลบ้านนา ตำบลหาดพันไกร ตำบลบางลึก และตำบลถ้ำสิงห์) , อำเภอท่าแซะ , อำเภอปะทิว",
    "eligible": 132205,
    "postcode": [86000, 86100, 86140, 86160, 86190, 86210, 86230]
  },
  {
    "units": 249,
    "no": 3,
    "provinceId": 86,
    "details": "อำเภอสวี (เฉพาะตำบลเขาทะลุ และตำบลเขาค่าย) , อำเภอหลังสวน , อำเภอละแม , อำเภอพะโต๊ะ , อำเภอทุ่งตะโก",
    "eligible": 131416,
    "postcode": [86110, 86130, 86150, 86170, 86180, 86220]
  },
  {
    "units": 195,
    "no": 1,
    "provinceId": 90,
    "details": "อำเภอเมืองสงขลา",
    "eligible": 127989,
    "postcode": [90000, 90100]
  },
  {
    "units": 215,
    "no": 2,
    "provinceId": 90,
    "details": "อำเภอหาดใหญ่ (เฉพาะตำบลหาดใหญ่ ตำบลคลองแห และตำบลคลองอู่ตะเภา",
    "eligible": 140848,
    "postcode": [90110]
  },
  {
    "units": 200,
    "no": 3,
    "provinceId": 90,
    "details": "อำเภอหาดใหญ่ (เฉพาะตำบลคูเต่า ตำบลฉลุง ตำบลทุ่งใหญ่ ตำบลท่าข้าม ตำบลน้ำน้อย ตำบลควนลัง ตำบลทุ่งตำเสา และตำบลคอหงส์) , อำเภอนาหม่อม",
    "eligible": 140302,
    "postcode": [90110, 90310]
  },
  {
    "units": 236,
    "no": 4,
    "provinceId": 90,
    "details": "อำเภอระโนด , อำเภอกระแสสินธุ์ , อำเภอสทิงพระ , อำเภอสิงหนคร (ยกเว้นตำบลปากรอ ตำบลป่าขาด ตำบลท านบ ตำบลชิงโค ตำบลหัวเขา และตำบลสทิงหม้อ)",
    "eligible": 126305,
    "postcode": [90140, 90190, 90270, 90280, 90330]
  },
  {
    "units": 252,
    "no": 5,
    "provinceId": 90,
    "details": "อำเภอสิงหนคร (เฉพาะตำบลปากรอ ตำบลป่าขาด ตำบลท านบ ตำบลชิงโค ตำบลหัวเขา และตำบลสทิงหม้อ) , อำเภอควนเนียง , อำเภอบางกล่ า , อำเภอรัตภูมิ",
    "eligible": 147869,
    "postcode": [90110, 90180, 90220, 90280, 90330]
  },
  {
    "units": 195,
    "no": 6,
    "provinceId": 90,
    "details": "อำเภอหาดใหญ่ (เฉพาะตำบลพะตง ตำบลบ้านไร่ และตำบลบ้านพรุ) อำเภอคลองหอยโข่ง , อำเภอสะเดา (ยกเว้นตำบลสำนักแต้ว และตำบลสำนักขาม)",
    "eligible": 126480,
    "postcode": [90115, 90120, 90170, 90230, 90240, 90250]
  },
  {
    "units": 210,
    "no": 7,
    "provinceId": 90,
    "details": "อำเภอนาทวี , อำเภอสะบ้าย้อย , อำเภอสะเดา (เฉพาะตำบลสำนักแต้ว และตำบลสำนักขาม)",
    "eligible": 123697,
    "postcode": [90120, 90160, 90210]
  },
  {
    "units": 242,
    "no": 8,
    "provinceId": 90,
    "details": "อำเภอจะนะ , อำเภอเทพา",
    "eligible": 134809,
    "postcode": [90130, 90150, 90260]
  },
  {
    "units": 168,
    "no": 1,
    "provinceId": 91,
    "details": "อำเภอเมืองสตูล , อำเภอควนโดน , อำเภอควนกาหลง (เฉพาะตำบลทุ่งนุ้ย)",
    "eligible": 110587,
    "postcode": [91000, 91130, 91140, 91160]
  },
  {
    "units": 196,
    "no": 2,
    "provinceId": 91,
    "details": "อำเภอควนกาหลง (ยกเว้นตำบลทุ่งนุ้ย) , อำเภอละงู , อำเภอท่าแพ , อำเภอทุ่งหว้า , อำเภอมะนัง",
    "eligible": 121009,
    "postcode": [91110, 91120, 91130, 91150]
  },
  {
    "units": 277,
    "no": 1,
    "provinceId": 92,
    "details": "อำเภอเมืองตรัง , อำเภอนาโยง , อำเภอย่านตาขาว (เฉพาะตำบลนาชุมเห็ด และตำบลโพรงจระเข้ )",
    "eligible": 166246,
    "postcode": [92000, 92140, 92170, 92190]
  },
  {
    "units": 322,
    "no": 2,
    "provinceId": 92,
    "details": "อำเภอห้วยยอด , อำเภอรัษฎา , อำเภอวังวิเศษ , อำเภอสิเกา , อำเภอกันตัง (เฉพาะตำบลโคกยาง)",
    "eligible": 160230,
    "postcode": [92000, 92110, 92130, 92150, 92160, 92190, 92210, 92220]
  },
  {
    "units": 285,
    "no": 3,
    "provinceId": 92,
    "details": "อำเภอกันตัง (ยกเว้นตำบลโคกยาง) , อำเภอปะเหลียน , อำเภอหาดสำราญ , อำเภอย่านตาขาว (ยกเว้นตำบลนาชุมเห็ด และตำบลโพรงจระเข้",
    "eligible": 165657,
    "postcode": [92110, 92120, 92140, 92180]
  },
  {
    "units": 248,
    "no": 1,
    "provinceId": 93,
    "details": "อำเภอเมืองพัทลุง , อำเภอเขาชัยสน",
    "eligible": 131751,
    "postcode": [93000, 93130]
  },
  {
    "units": 255,
    "no": 2,
    "provinceId": 93,
    "details": "อำเภอควนขนุน , อำเภอป่าพะยอม , อำเภอศรีบรรพต , อำเภอศรีนครินทร์",
    "eligible": 132753,
    "postcode": [93000, 93110, 93150, 93190]
  },
  {
    "units": 262,
    "no": 3,
    "provinceId": 93,
    "details": "อำเภอปากพะยูน , อำเภอป่าบอน , อำเภอกงหรา , อำเภอตะโหมด , อำเภอบางแก้ว",
    "eligible": 147267,
    "postcode": [93000, 93120, 93140, 93160, 93170, 93180]
  },
  {
    "units": 190,
    "no": 1,
    "provinceId": 94,
    "details": "อำเภอเมืองปัตตานี , อำเภอยะหริ่ง (เฉพาะตำบลบางปู ตำบลแหลมโพธิ์ ตำบลตะโละกาโปร์ ตำบลยามู ตำบลราตาปันยัง ตำบลตาแกะ ตำบลปิยามุมัง ตำบลตะโละ ตำบลตาลีอายร์ และตำบลปุลากง)",
    "eligible": 131608,
    "postcode": [94000, 94150]
  },
  {
    "units": 203,
    "no": 2,
    "provinceId": 94,
    "details": "อำเภอหนองจิก , อำเภอโคกโพธิ์ , อำเภอแม่ลาน",
    "eligible": 116660,
    "postcode": [94120, 94170, 94180]
  },
  {
    "units": 221,
    "no": 3,
    "provinceId": 94,
    "details": "อำเภอปะนาเระ , อำเภอสายบุรี , อำเภอไม้แก่น , อำเภอกะพ้อ , อำเภอยะหริ่ง (ยกเว้นตำบลบางปู ตำบลแหลมโพธิ์ ตำบลตะโละกาโปร์ ตำบลยามู ตำบลราตาปันยัง ตำบลตาแกะ ตำบลปิยามุมัง ตำบลตะโละ ตำบลตาลีอายร์ และตำบลปุลากง)",
    "eligible": 120977,
    "postcode": [94110, 94130, 94150, 94190, 94220, 94230]
  },
  {
    "units": 189,
    "no": 4,
    "provinceId": 94,
    "details": "อำเภอยะรัง , อำเภอมายอ , อำเภอทุ่งยางแดง",
    "eligible": 119267,
    "postcode": [94140, 94160, 94190]
  },
  {
    "units": 184,
    "no": 1,
    "provinceId": 95,
    "details": "อำเภอเมืองยะลา (ยกเว้นตำบลบุดี ตำบลเปาะเส้ง และตำบลบันนังสาเรง) , อำเภอยะหา (เฉพาะตำบลยะหา ตำบลตาชี และตำบลบาโงยซิแน)",
    "eligible": 121195,
    "postcode": [95000, 95120, 95160]
  },
  {
    "units": 181,
    "no": 2,
    "provinceId": 95,
    "details": "อำเภอเมืองยะลา (เฉพาะตำบลบุดี ตำบลเปาะเส้ง และตำบลบันนังสาเรง) , อำเภอรามัน , อำเภอยะหา (ยกเว้นตำบลยะหา ตำบลตาชี และตำบลบาโงยซิแน) , อำเภอกาบัง",
    "eligible": 121865,
    "postcode": [95000, 95120, 95140]
  },
  {
    "units": 212,
    "no": 3,
    "provinceId": 95,
    "details": "อำเภอกรงปินัง , อำเภอบันนังสตา , อำเภอธารโต , อำเภอเบตง",
    "eligible": 121575,
    "postcode": [95000, 95110, 95130, 95150, 95170]
  },
  {
    "units": 216,
    "no": 1,
    "provinceId": 96,
    "details": "อำเภอเมืองนราธิวาส , อำเภอตากใบ",
    "eligible": 137964,
    "postcode": [96000, 96110]
  },
  {
    "units": 216,
    "no": 2,
    "provinceId": 96,
    "details": "อำเภอสุไหงโก-ลก , อำเภอแว้ง , อำเภอสุไหงปาดี",
    "eligible": 131541,
    "postcode": [96120, 96140, 96160]
  },
  {
    "units": 234,
    "no": 3,
    "provinceId": 96,
    "details": "อำเภอระแงะ , อำเภอจะแนะ อำเภอเจาะไอร้อง , อำเภอสุคิริน",
    "eligible": 136833,
    "postcode": [96130, 96190, 96220]
  },
  {
    "units": 261,
    "no": 4,
    "provinceId": 96,
    "details": "อำเภอบาเจาะ , อำเภอยี่งอ , อำเภอรือเสาะ , อำเภอศรีสาคร",
    "eligible": 145232,
    "postcode": [96150, 96170, 96180, 96210]
  }
]
